{
"type": "FeatureCollection",
"name": "sl_connected_lake_v1-0",
"crs": { "type": "name", "properties": { "name": "urn:ogc:def:crs:OGC:1.3:CRS84" } },
"features": [
{ "type": "Feature", "properties": { "Hylak_id": 106724.0, "Lake_name": null, "Country": "Canada", "Continent": "North America", "Poly_src": "CanVec", "Lake_type": 1.0, "Grand_id": 0.0, "Lake_area": 2.79, "Shore_len": 14.43, "Shore_dev": 2.43, "Vol_total": 20.71, "Vol_res": 0.0, "Vol_src": 3.0, "Depth_avg": 7.4, "Dis_avg": 0.326, "Res_time": 735.3, "Elevation": 487.0, "Slope_100": 3.66, "Wshd_area": 20.9, "Pour_long": -74.295336, "Pour_lat": 46.811402, "Shape_Le_1": 0.15791409178, "Shape_Le_2": 0.15791409178, "SDA_NM": "02N", "SSDA_NM": "02_02" }, "geometry": { "type": "Polygon", "coordinates": [ [ [ -74.306452780443891, 46.8311844532832 ], [ -74.305089943916556, 46.830779774236497 ], [ -74.304007350772864, 46.829875546741 ], [ -74.302425303600657, 46.829518325770628 ], [ -74.302247021123321, 46.829530336784984 ], [ -74.302176574504585, 46.829789338238825 ], [ -74.301588011073875, 46.829776190000587 ], [ -74.30072277474612, 46.829159828043885 ], [ -74.300508952467283, 46.82916965677375 ], [ -74.300706629736567, 46.829459292713217 ], [ -74.300538939052899, 46.83012409791079 ], [ -74.298957648116883, 46.830359158117915 ], [ -74.298327770696247, 46.82969995539554 ], [ -74.296863929864401, 46.828906958979033 ], [ -74.296491332433817, 46.828256227727813 ], [ -74.295971943869503, 46.82797360491162 ], [ -74.296120225714446, 46.827769011884875 ], [ -74.294823905042946, 46.826836824614581 ], [ -74.294159631456253, 46.825967307728241 ], [ -74.294276448353173, 46.825510079979388 ], [ -74.294529028835967, 46.825421112430384 ], [ -74.29285737082121, 46.824960105821184 ], [ -74.286981545423103, 46.825159361169526 ], [ -74.287696514323287, 46.825760181073129 ], [ -74.28815487639126, 46.826742798828398 ], [ -74.288431437383309, 46.826835416049079 ], [ -74.289210709608511, 46.826480132730218 ], [ -74.289920213032502, 46.825525694778726 ], [ -74.291258777090775, 46.825736965126637 ], [ -74.291453032223941, 46.826081658799168 ], [ -74.291213265401922, 46.82722137584345 ], [ -74.290170450899907, 46.828472790031107 ], [ -74.289519328392089, 46.828676556286617 ], [ -74.288897897580796, 46.829437000661017 ], [ -74.288731908318539, 46.828890141608511 ], [ -74.287857860720223, 46.82837536728379 ], [ -74.288005737281594, 46.827659690365174 ], [ -74.287159695719751, 46.827063710706938 ], [ -74.285600748797137, 46.826669675144444 ], [ -74.283866320043529, 46.825634377587967 ], [ -74.282973888223196, 46.824805535629139 ], [ -74.282334844397369, 46.824673689312618 ], [ -74.281964355210093, 46.824994736284779 ], [ -74.28265007405129, 46.825785830762413 ], [ -74.282793651058341, 46.82635927309007 ], [ -74.282539171131944, 46.826566237641806 ], [ -74.281633089705082, 46.826770959937242 ], [ -74.280563445596428, 46.826093650894521 ], [ -74.279192014082227, 46.825965490118399 ], [ -74.279592334550699, 46.825437525653662 ], [ -74.279299414678192, 46.824943012787209 ], [ -74.279804637678126, 46.824267557455038 ], [ -74.279832539413405, 46.823497066797572 ], [ -74.278669312526659, 46.822556225171759 ], [ -74.278517051288347, 46.821952022079095 ], [ -74.277875455227274, 46.821370405479726 ], [ -74.277684042508426, 46.820450077091003 ], [ -74.278077641607183, 46.820368683925793 ], [ -74.278097344933514, 46.820242873110615 ], [ -74.277503835376848, 46.820179097687607 ], [ -74.27732274158285, 46.819735877343199 ], [ -74.277804660399084, 46.818699781356962 ], [ -74.27838385946076, 46.818165111125438 ], [ -74.279838864413676, 46.818158630331524 ], [ -74.28092419169694, 46.817667021545823 ], [ -74.280070925558078, 46.817521488819338 ], [ -74.279896247352596, 46.816607325614697 ], [ -74.281760250039298, 46.816203470974806 ], [ -74.281986297879826, 46.815978600565337 ], [ -74.281792551402916, 46.81522057741396 ], [ -74.282091249464244, 46.814820326790532 ], [ -74.284171733991514, 46.814037063822575 ], [ -74.284880708434329, 46.813522242036676 ], [ -74.284881808022135, 46.813323080276788 ], [ -74.284494955315594, 46.813038308660651 ], [ -74.284550021149045, 46.811691883229201 ], [ -74.28389214149729, 46.809825473278266 ], [ -74.28428124060315, 46.808690995981166 ], [ -74.285994829147981, 46.809393560170548 ], [ -74.286388821877964, 46.810262513388054 ], [ -74.286154213971429, 46.810782998433169 ], [ -74.286715690328705, 46.811145779986084 ], [ -74.286753322197768, 46.811709706909269 ], [ -74.287005625446184, 46.811650356179101 ], [ -74.288594668904338, 46.810374527623154 ], [ -74.289376431468071, 46.81043155889251 ], [ -74.289793802804923, 46.811914546807408 ], [ -74.290474025765889, 46.812517411831834 ], [ -74.289872634853026, 46.81353092475652 ], [ -74.289521406480986, 46.813568297663238 ], [ -74.289290014270989, 46.814266566900066 ], [ -74.289800610438064, 46.815244912177668 ], [ -74.290510900429879, 46.815409538230213 ], [ -74.291146130487817, 46.81501482722566 ], [ -74.291729698343786, 46.815226510988467 ], [ -74.294095390667295, 46.817537196887713 ], [ -74.295752143935317, 46.817839049606398 ], [ -74.296852366315207, 46.81773542604185 ], [ -74.297368039315501, 46.818120236754091 ], [ -74.298147285910957, 46.817879488171691 ], [ -74.298128161894141, 46.817375261774586 ], [ -74.297512380589993, 46.816771268072955 ], [ -74.297200272170201, 46.815806695320617 ], [ -74.296623523430213, 46.815426424849328 ], [ -74.295932086176336, 46.814382267454285 ], [ -74.295480511987392, 46.812567879271789 ], [ -74.295551534480609, 46.811772332870831 ], [ -74.2948522910241, 46.811365867069711 ], [ -74.294816581277786, 46.810434832511149 ], [ -74.294426138492369, 46.810376690230967 ], [ -74.293748215379807, 46.809307855146173 ], [ -74.294024112538011, 46.809127387255224 ], [ -74.294764578575382, 46.810104193795752 ], [ -74.295170889479863, 46.810254579783503 ], [ -74.295302618008407, 46.811108803353228 ], [ -74.29601944964503, 46.811590030763227 ], [ -74.296057479447427, 46.812473337277062 ], [ -74.297004133597568, 46.812923760212136 ], [ -74.297559052383377, 46.813894330973483 ], [ -74.29760705777224, 46.814467120788443 ], [ -74.298861647125648, 46.815954854141182 ], [ -74.299131406641138, 46.816881592568421 ], [ -74.298746362191977, 46.81734807762254 ], [ -74.298661993949338, 46.819422536670658 ], [ -74.298807116427412, 46.820166975107767 ], [ -74.299749060016154, 46.821710061610638 ], [ -74.302022630836106, 46.822967388155185 ], [ -74.302000414518133, 46.823129845160388 ], [ -74.304428146743419, 46.823394695499658 ], [ -74.307046341910961, 46.824512281264823 ], [ -74.307617012236534, 46.825086580826103 ], [ -74.30779782562945, 46.825708386848582 ], [ -74.308981611921681, 46.826222710839048 ], [ -74.309834213370152, 46.826944086104106 ], [ -74.310337129979516, 46.826695326693823 ], [ -74.311504271650051, 46.826745526024212 ], [ -74.312051485883586, 46.827026379018427 ], [ -74.31348130987115, 46.826923528416678 ], [ -74.31438478838497, 46.827618812237631 ], [ -74.315294830426851, 46.827830626212744 ], [ -74.315988179855864, 46.828661630839441 ], [ -74.315846296704123, 46.829204820228007 ], [ -74.316431655405694, 46.829311412993334 ], [ -74.316308350891333, 46.829668089839032 ], [ -74.31562580572016, 46.829525773092634 ], [ -74.315190883600891, 46.830140133562239 ], [ -74.314757002135323, 46.830268756783674 ], [ -74.312484670328217, 46.830291395136001 ], [ -74.311055273528339, 46.831137560022228 ], [ -74.310056362484332, 46.830908991841724 ], [ -74.307838090344163, 46.830886918055242 ], [ -74.306452780443891, 46.8311844532832 ] ] ] } },
{ "type": "Feature", "properties": { "Hylak_id": 106990.0, "Lake_name": null, "Country": "Canada", "Continent": "North America", "Poly_src": "CanVec", "Lake_type": 1.0, "Grand_id": 0.0, "Lake_area": 7.81, "Shore_len": 60.24, "Shore_dev": 6.08, "Vol_total": 69.78, "Vol_res": 0.0, "Vol_src": 3.0, "Depth_avg": 8.9, "Dis_avg": 1.246, "Res_time": 648.2, "Elevation": 430.0, "Slope_100": 3.17, "Wshd_area": 79.7, "Pour_long": -74.11175, "Pour_lat": 46.637145, "Shape_Le_1": 0.65430734593999995, "Shape_Le_2": 0.65430734593999995, "SDA_NM": "02N", "SSDA_NM": "02_02" }, "geometry": { "type": "Polygon", "coordinates": [ [ [ -74.135930157643429, 46.707635593730572 ], [ -74.136309086883131, 46.707435441588629 ], [ -74.136629980882574, 46.70672758584567 ], [ -74.138184283038399, 46.705984680790756 ], [ -74.139230064481524, 46.706452730062203 ], [ -74.138741469175741, 46.706858836394289 ], [ -74.138813904455716, 46.707518947896723 ], [ -74.139032251396472, 46.707608811167241 ], [ -74.139570416569029, 46.707332879973123 ], [ -74.140827183550769, 46.705992736019233 ], [ -74.139707547612772, 46.706129260302227 ], [ -74.138920858013265, 46.705645497811133 ], [ -74.13929170323604, 46.704824424941343 ], [ -74.139979682409191, 46.704484780932596 ], [ -74.140708231848876, 46.704836936416747 ], [ -74.141144673996962, 46.70468912909508 ], [ -74.140864649179974, 46.704203875340255 ], [ -74.141429404738503, 46.703517525125449 ], [ -74.142545513783134, 46.70277542922053 ], [ -74.143298681801653, 46.701783325866671 ], [ -74.143876785304542, 46.701859616900649 ], [ -74.14352995554259, 46.702474684763963 ], [ -74.143817692262914, 46.702769844643861 ], [ -74.144582294479989, 46.701307708853946 ], [ -74.145412254093515, 46.701355625307407 ], [ -74.145584997774932, 46.7015939916948 ], [ -74.145315304606726, 46.701989402561068 ], [ -74.145447660496586, 46.702008212977823 ], [ -74.145750339614011, 46.70180714285911 ], [ -74.145826695092879, 46.701391909491342 ], [ -74.146973144650573, 46.701132835562809 ], [ -74.147427637179959, 46.700809941466524 ], [ -74.145481609775686, 46.699780759040443 ], [ -74.145390122294714, 46.699172436852727 ], [ -74.145219616754105, 46.699083338191755 ], [ -74.143996651748751, 46.699018637310147 ], [ -74.144753089803316, 46.699206919104249 ], [ -74.146094457703597, 46.700364958483632 ], [ -74.146144278769611, 46.700848758211364 ], [ -74.144699110090059, 46.700548598352896 ], [ -74.144482564476505, 46.700822421032711 ], [ -74.143875500745779, 46.700873233724828 ], [ -74.143190687438874, 46.700419326439416 ], [ -74.142315499179944, 46.70044172067113 ], [ -74.141884754488188, 46.700150904961582 ], [ -74.141797641767411, 46.699721611731846 ], [ -74.142450871433809, 46.69927694503366 ], [ -74.141926723647103, 46.699276490044497 ], [ -74.140949712091171, 46.699819560479142 ], [ -74.140477001747655, 46.699622489629498 ], [ -74.140204029877907, 46.698390000395946 ], [ -74.140346672464005, 46.697380584841497 ], [ -74.139943150453036, 46.696440296309952 ], [ -74.139257374627107, 46.695706992748057 ], [ -74.139511764578486, 46.694822978748633 ], [ -74.140426221492987, 46.693972475286785 ], [ -74.138003093526123, 46.694345929920893 ], [ -74.13784812387695, 46.6947726348901 ], [ -74.138992044708658, 46.695177531294057 ], [ -74.138720359383342, 46.696235921553694 ], [ -74.138109192536703, 46.695965238085392 ], [ -74.137634591218514, 46.69625963871966 ], [ -74.136389261939556, 46.695551304784985 ], [ -74.136184350216652, 46.694558012003554 ], [ -74.1366400705692, 46.693685546177754 ], [ -74.137018496441357, 46.691233517419313 ], [ -74.138701887849152, 46.690552655121849 ], [ -74.139273869120558, 46.689817280101906 ], [ -74.13912479354407, 46.689147404232024 ], [ -74.137817108608985, 46.688646074925281 ], [ -74.13693110149336, 46.687833266897933 ], [ -74.136807063325705, 46.687324812312305 ], [ -74.137134674322795, 46.686166200013915 ], [ -74.136926267319879, 46.685479711692373 ], [ -74.13819203064358, 46.684825825262706 ], [ -74.13863659360959, 46.685027473283348 ], [ -74.138019881756975, 46.685692043493226 ], [ -74.138114942361113, 46.685864470181023 ], [ -74.138499310366171, 46.685861896047307 ], [ -74.138844827468986, 46.685464375803981 ], [ -74.139202029989107, 46.684554425123778 ], [ -74.138874508558587, 46.683884616967063 ], [ -74.140758378991023, 46.682122070895993 ], [ -74.141000594210922, 46.681684019447921 ], [ -74.140777400805575, 46.681069992019104 ], [ -74.141052713590355, 46.68022531671442 ], [ -74.142177037664894, 46.679071524840005 ], [ -74.142832975488759, 46.67872284621167 ], [ -74.143102940576966, 46.678083625174885 ], [ -74.144502801667244, 46.677867323365021 ], [ -74.145787509417076, 46.678597198816398 ], [ -74.145606708083136, 46.677587139459305 ], [ -74.14441799863512, 46.676541207824542 ], [ -74.144557973054418, 46.676102376344012 ], [ -74.144368752165775, 46.675813029950625 ], [ -74.144971486668254, 46.674998045722951 ], [ -74.14470372460768, 46.674332416837331 ], [ -74.146606351197292, 46.671067157579436 ], [ -74.147849489896004, 46.670480670753349 ], [ -74.148662077609316, 46.669807889145751 ], [ -74.14933076112861, 46.66848122950644 ], [ -74.149011398874876, 46.667983873261406 ], [ -74.149237455727217, 46.667429559300857 ], [ -74.150691717647874, 46.666320824510606 ], [ -74.151881077888348, 46.666048573077724 ], [ -74.151220102766089, 46.665549023750103 ], [ -74.150015073238691, 46.663562154411409 ], [ -74.150035486116167, 46.661296739862884 ], [ -74.148553263740709, 46.660803959082379 ], [ -74.148248427897627, 46.660433106509373 ], [ -74.148275628226955, 46.659831030228865 ], [ -74.148020082706694, 46.659623184319635 ], [ -74.146999089547606, 46.659259711041251 ], [ -74.146295971631446, 46.659479802852424 ], [ -74.145505909262454, 46.659246235779101 ], [ -74.144741834746654, 46.659346420960091 ], [ -74.144433814442294, 46.659016672304297 ], [ -74.144601740051129, 46.658362265012187 ], [ -74.142672735554569, 46.659511557969665 ], [ -74.142058918593676, 46.659594038342583 ], [ -74.140993679527966, 46.658776953608267 ], [ -74.141480175363057, 46.658017586407752 ], [ -74.140731836411788, 46.658131080738521 ], [ -74.140290716840624, 46.658506075393376 ], [ -74.140135652009704, 46.658477466647206 ], [ -74.14014365311634, 46.658000316209311 ], [ -74.140755397223856, 46.657321482089046 ], [ -74.140591169582933, 46.657102690682443 ], [ -74.139712721085786, 46.65704003922005 ], [ -74.139020130627415, 46.65664297886326 ], [ -74.138346574081112, 46.656791257658043 ], [ -74.138686344808164, 46.657351672058162 ], [ -74.138213952507456, 46.657637673811294 ], [ -74.138103291583278, 46.658450525866613 ], [ -74.137546027943543, 46.658346257703379 ], [ -74.137305536489578, 46.657206182083137 ], [ -74.136823118450138, 46.656744472349018 ], [ -74.137158105833578, 46.655994718641075 ], [ -74.136957007098232, 46.655229597172074 ], [ -74.134942970002555, 46.654422289828091 ], [ -74.134612940590713, 46.653813506827326 ], [ -74.134561544482423, 46.652717959843365 ], [ -74.134337951663952, 46.652566659855168 ], [ -74.132364776683971, 46.652440942892667 ], [ -74.130604690564695, 46.653181360685927 ], [ -74.128679878325016, 46.653126729146969 ], [ -74.128487396295441, 46.653811832807421 ], [ -74.129080840693575, 46.654498371697791 ], [ -74.128284670631956, 46.6549382010204 ], [ -74.128538307597111, 46.655246027933842 ], [ -74.13118969746364, 46.656479566252571 ], [ -74.133715524822819, 46.658513427927552 ], [ -74.134284546637772, 46.658308864042709 ], [ -74.134602027696616, 46.657113024845216 ], [ -74.135673744717693, 46.65710909270139 ], [ -74.136029744341499, 46.65746091197893 ], [ -74.135135649250515, 46.658097679411057 ], [ -74.134888347652705, 46.658572012550842 ], [ -74.135157642976708, 46.660624405172889 ], [ -74.13422133315521, 46.660805972588626 ], [ -74.133535983972507, 46.661210774211455 ], [ -74.133632324367554, 46.661532999520809 ], [ -74.132353277712255, 46.662063809608192 ], [ -74.132642802438369, 46.662961159249797 ], [ -74.131525157010515, 46.66258048869841 ], [ -74.131710319079204, 46.66199188778927 ], [ -74.131617039916705, 46.661929526914243 ], [ -74.129577578854736, 46.663018944692865 ], [ -74.13143120679257, 46.664372695149702 ], [ -74.132206261545733, 46.66566541166587 ], [ -74.132066700552386, 46.666176086869321 ], [ -74.132303245975464, 46.666567177453501 ], [ -74.132485164556499, 46.668292871984391 ], [ -74.132076582889994, 46.669207080893237 ], [ -74.132098030443316, 46.669745367196924 ], [ -74.131600421819854, 46.670209599582797 ], [ -74.131944716110795, 46.670546069745377 ], [ -74.131737333490335, 46.671580767221201 ], [ -74.131289246771942, 46.671889388562242 ], [ -74.131462744663565, 46.672235491657148 ], [ -74.131154338642034, 46.674888766342278 ], [ -74.130447706102302, 46.675317802849534 ], [ -74.129861521744331, 46.676254626761605 ], [ -74.12890164197853, 46.677041720539833 ], [ -74.126249317541081, 46.676983322199035 ], [ -74.124887484679988, 46.67733483451839 ], [ -74.123295257575307, 46.678217138124694 ], [ -74.12263907551494, 46.678154732968686 ], [ -74.122816231774962, 46.678475995971148 ], [ -74.12190127541146, 46.680406705129663 ], [ -74.121333260102688, 46.680938539196724 ], [ -74.120737946515504, 46.680888623610855 ], [ -74.119967675510168, 46.681178202842709 ], [ -74.119340049265944, 46.681010689141658 ], [ -74.118348431263087, 46.681365559925602 ], [ -74.118314646728081, 46.680691684364625 ], [ -74.117940147105955, 46.680450017929026 ], [ -74.116519790286276, 46.680411521321375 ], [ -74.116111486830192, 46.680645203090961 ], [ -74.115759102155337, 46.68033658983375 ], [ -74.113068453000096, 46.68087563490549 ], [ -74.112434914525252, 46.680719199313209 ], [ -74.112164903672024, 46.680219591819558 ], [ -74.112425815688226, 46.679868584736717 ], [ -74.116149918993599, 46.678260263766006 ], [ -74.116941473936933, 46.678122381542742 ], [ -74.117437560178985, 46.678340485221433 ], [ -74.11889655988422, 46.677753022841465 ], [ -74.121323391600157, 46.677497412813828 ], [ -74.12279046772467, 46.675447777583329 ], [ -74.12260774343666, 46.674844524751748 ], [ -74.123949950941778, 46.674480867123641 ], [ -74.124236249045396, 46.674286237270458 ], [ -74.12426164147972, 46.673845094964868 ], [ -74.125156922442912, 46.67335016297892 ], [ -74.126073537483691, 46.673656201902467 ], [ -74.127563504102255, 46.67286305247778 ], [ -74.128451593033333, 46.671580965984475 ], [ -74.12840679254802, 46.670825211815348 ], [ -74.128698452114989, 46.670288659270625 ], [ -74.130464439957947, 46.66940892526668 ], [ -74.12983698344388, 46.668631778670274 ], [ -74.12870282734778, 46.668924020785468 ], [ -74.128342197776306, 46.668349615397553 ], [ -74.127695754896621, 46.66815412585332 ], [ -74.12763592749873, 46.667650453081833 ], [ -74.126664511686357, 46.667562538051541 ], [ -74.126466477664692, 46.667076047852788 ], [ -74.125620466632427, 46.667139261270862 ], [ -74.125487730284419, 46.666881762180196 ], [ -74.12474264589089, 46.667895926779963 ], [ -74.124556454878388, 46.668793505254705 ], [ -74.123628016310235, 46.669436559317106 ], [ -74.123285398547395, 46.668337773052826 ], [ -74.123513323457644, 46.668166435751175 ], [ -74.122893735514708, 46.667941868082686 ], [ -74.123013231894859, 46.667441379611098 ], [ -74.122827525505286, 46.666841338826636 ], [ -74.122271600460024, 46.666373236235692 ], [ -74.121668919387801, 46.666231911284392 ], [ -74.121035672970962, 46.666500903433437 ], [ -74.120457351475139, 46.666301188788424 ], [ -74.120356268469152, 46.665895229290804 ], [ -74.120786657541217, 46.665704860306775 ], [ -74.121036337183796, 46.664837918847631 ], [ -74.120674647731377, 46.6644844337983 ], [ -74.120029280401752, 46.664294168971118 ], [ -74.120124114158273, 46.66379547894428 ], [ -74.120486367641902, 46.663594469968025 ], [ -74.121652698641157, 46.66365009750362 ], [ -74.122056121941085, 46.663272926198232 ], [ -74.123044218687383, 46.663006017536098 ], [ -74.123650100484056, 46.662466113044651 ], [ -74.124016983499416, 46.661397000908863 ], [ -74.125294229756179, 46.659696402782451 ], [ -74.126106206554397, 46.65717595615039 ], [ -74.125990048480517, 46.655206591929115 ], [ -74.126270724574979, 46.654523578230361 ], [ -74.124439644536764, 46.653290465014358 ], [ -74.123003475199965, 46.652878459906397 ], [ -74.123631644160454, 46.652037381384062 ], [ -74.123462072961559, 46.651882297357815 ], [ -74.122390034350175, 46.651819858713957 ], [ -74.122270973778512, 46.651392994286624 ], [ -74.12276603030277, 46.651188625125712 ], [ -74.123567624061124, 46.651500197723777 ], [ -74.124467240773058, 46.65135789426099 ], [ -74.124866319122802, 46.651780076898461 ], [ -74.124638233732043, 46.652197582886693 ], [ -74.125658587457039, 46.652345848326355 ], [ -74.126031073007212, 46.652262179944906 ], [ -74.126826543305143, 46.651427164070938 ], [ -74.12817304424091, 46.651427649408262 ], [ -74.12848381914209, 46.651677777505625 ], [ -74.128356561999794, 46.652085556974086 ], [ -74.128667555548901, 46.652283605165984 ], [ -74.129780188646478, 46.652409597706608 ], [ -74.131481301163873, 46.652038380592842 ], [ -74.132748058457352, 46.651160752955704 ], [ -74.132788479552758, 46.650779657147439 ], [ -74.132575311246526, 46.650436922996896 ], [ -74.130167388736751, 46.651798961773501 ], [ -74.128781951024564, 46.6515729991443 ], [ -74.128722693944539, 46.651189331232111 ], [ -74.129029075074541, 46.650912736274051 ], [ -74.13009913618319, 46.650494860240862 ], [ -74.130379637217331, 46.650177542732557 ], [ -74.130245957874195, 46.64884910407666 ], [ -74.129221318648959, 46.648252574019459 ], [ -74.128478371618613, 46.648236179070537 ], [ -74.12697999171607, 46.648643102589432 ], [ -74.126080256158176, 46.648219898889721 ], [ -74.125981508596922, 46.647923422895452 ], [ -74.1256980310865, 46.648406658600905 ], [ -74.125187356582089, 46.648339899016122 ], [ -74.12506003411913, 46.647945472434706 ], [ -74.125196938431301, 46.646862126192659 ], [ -74.125720504364267, 46.64693230769835 ], [ -74.125737700821233, 46.647153454398868 ], [ -74.126371003862559, 46.647357708131182 ], [ -74.126758774431906, 46.647741612842182 ], [ -74.127465127479354, 46.647356345081064 ], [ -74.128090827254084, 46.64733319292219 ], [ -74.128137288519099, 46.646334448196761 ], [ -74.127320707373144, 46.645952598080946 ], [ -74.125837671611791, 46.645993630895411 ], [ -74.125510305402173, 46.646557399086767 ], [ -74.125153759009734, 46.646489976438545 ], [ -74.124715070622443, 46.64590732466673 ], [ -74.124695224057731, 46.644122527712106 ], [ -74.123130651461437, 46.643269565985456 ], [ -74.122324818954112, 46.643364835262332 ], [ -74.120984142820333, 46.643001359070283 ], [ -74.120836059057666, 46.642654976471015 ], [ -74.121192134074661, 46.642300013481361 ], [ -74.120980462268392, 46.642178832345145 ], [ -74.120413393641357, 46.642661202132182 ], [ -74.118729302357224, 46.641997701860838 ], [ -74.116455576585537, 46.642007561696367 ], [ -74.116009359896836, 46.641828407667887 ], [ -74.116340211587541, 46.641547714573605 ], [ -74.116257635614772, 46.641307880158294 ], [ -74.115441277564415, 46.641571960833645 ], [ -74.114650542279648, 46.641132895194872 ], [ -74.113434665250011, 46.640870575398822 ], [ -74.113115074498154, 46.640648590837593 ], [ -74.113522911132449, 46.640315243871591 ], [ -74.113121962381626, 46.640096907104613 ], [ -74.113386213824853, 46.639802191826284 ], [ -74.112890259564935, 46.63943131732583 ], [ -74.111946967216412, 46.639248399365613 ], [ -74.111372507821372, 46.638300589748077 ], [ -74.110816447964368, 46.638253557535862 ], [ -74.110454617643683, 46.637819854277069 ], [ -74.110880895252038, 46.637041594409006 ], [ -74.111565635841018, 46.636624844568459 ], [ -74.113078491317381, 46.636703885300058 ], [ -74.113575974439797, 46.637122216266988 ], [ -74.11351927480824, 46.637531566984279 ], [ -74.11264365701004, 46.637322051831063 ], [ -74.112542282397101, 46.637692266658703 ], [ -74.113477096812218, 46.638244407767303 ], [ -74.114778892684527, 46.638276808389747 ], [ -74.115673271088852, 46.638947293596907 ], [ -74.116082895850454, 46.639814509255508 ], [ -74.116376497228416, 46.639994353363271 ], [ -74.116735684437302, 46.639700623211432 ], [ -74.117497770618343, 46.640086478276871 ], [ -74.120957030638493, 46.640926544901134 ], [ -74.122189443190734, 46.641790582832101 ], [ -74.122382835016481, 46.641044669809361 ], [ -74.122518830420006, 46.641001045316457 ], [ -74.123255083251095, 46.641642316780306 ], [ -74.122981130532025, 46.642268214299449 ], [ -74.123321909932969, 46.642451473273574 ], [ -74.123948931040601, 46.641590645218386 ], [ -74.124633011857725, 46.642214877946095 ], [ -74.124572053589787, 46.642590730864896 ], [ -74.125091399722024, 46.642862678267498 ], [ -74.125416293428941, 46.642890454234113 ], [ -74.124882778277353, 46.642583867221902 ], [ -74.125128169371933, 46.642311081129847 ], [ -74.12692384771087, 46.643105085314147 ], [ -74.129151731499675, 46.643365844758861 ], [ -74.129191757442086, 46.643698733775203 ], [ -74.130263600235963, 46.64401680790381 ], [ -74.131338431306816, 46.645049643055223 ], [ -74.131889929383263, 46.644403644885344 ], [ -74.132457162869343, 46.644694340359749 ], [ -74.133028530085355, 46.644553395642156 ], [ -74.133094788259072, 46.644051458248626 ], [ -74.132644442227388, 46.643493872806879 ], [ -74.13290616209072, 46.642967985379087 ], [ -74.136248655367908, 46.641601656189991 ], [ -74.136679691237077, 46.640743425238618 ], [ -74.137276863758061, 46.640703375202662 ], [ -74.137891509422516, 46.640296463009726 ], [ -74.138112988794376, 46.640724591142025 ], [ -74.137901591679238, 46.641066166819051 ], [ -74.138235351930504, 46.64128243081408 ], [ -74.138231083046804, 46.641962368238254 ], [ -74.13743201955613, 46.642564059803952 ], [ -74.137240885403727, 46.643358267879634 ], [ -74.13672447641008, 46.64398019030245 ], [ -74.135472673576729, 46.644515719496084 ], [ -74.135240550288827, 46.645446634811968 ], [ -74.135841540151731, 46.645718187625341 ], [ -74.137383686913822, 46.645417622901014 ], [ -74.137519563885135, 46.645879773855007 ], [ -74.137797859870219, 46.645262585233681 ], [ -74.138384301899592, 46.645252107506913 ], [ -74.138369359136973, 46.645940853407424 ], [ -74.13794760414379, 46.64638629891445 ], [ -74.137255070503045, 46.646605902240879 ], [ -74.136544592050655, 46.646478117645096 ], [ -74.136505996099842, 46.646600970100138 ], [ -74.137155196779531, 46.64705373298434 ], [ -74.138572923196506, 46.646705825404531 ], [ -74.139297291617879, 46.647501616566167 ], [ -74.139266011721332, 46.647929810719425 ], [ -74.13986718564324, 46.648175021280991 ], [ -74.140232206656236, 46.648011962902999 ], [ -74.140344156784636, 46.647327185352701 ], [ -74.141148076398025, 46.647322901216604 ], [ -74.141113000874512, 46.646828430269501 ], [ -74.141412603777752, 46.646544496250606 ], [ -74.140552643369048, 46.645697205288542 ], [ -74.139710278327541, 46.643950073227842 ], [ -74.139142277394129, 46.643423567730089 ], [ -74.13914770872924, 46.642952029625519 ], [ -74.139449081085118, 46.642733971217751 ], [ -74.139039909322477, 46.642237154282348 ], [ -74.139115061065922, 46.641830777086142 ], [ -74.139884351959623, 46.641125162704157 ], [ -74.142134116266305, 46.6405205249918 ], [ -74.142309414941749, 46.640686012301309 ], [ -74.142070652055239, 46.64113543791423 ], [ -74.142222578571108, 46.64131524920019 ], [ -74.143137210393235, 46.641431563562222 ], [ -74.144956199757672, 46.642475284764807 ], [ -74.145290273722125, 46.643768962494747 ], [ -74.146319870519335, 46.644517657973537 ], [ -74.146248812654036, 46.644811730305854 ], [ -74.146936732247795, 46.644757844880843 ], [ -74.147426871551687, 46.64515335914048 ], [ -74.147531624720401, 46.645892071802933 ], [ -74.147239876139736, 46.646182060919614 ], [ -74.147645426306653, 46.646906671751665 ], [ -74.147432243256517, 46.647152634384291 ], [ -74.146784145375605, 46.646992747712268 ], [ -74.146470231764894, 46.647281235119777 ], [ -74.146379383462275, 46.647973790300711 ], [ -74.145315738948128, 46.648513965064467 ], [ -74.145752330997624, 46.649095712306945 ], [ -74.145516066585344, 46.650005995299111 ], [ -74.146591387324676, 46.650289093615143 ], [ -74.146866403848222, 46.651300265584489 ], [ -74.14686509932622, 46.6517296668912 ], [ -74.146437429109426, 46.65211235820594 ], [ -74.146080834241914, 46.651777688938651 ], [ -74.14569129330711, 46.651909761343695 ], [ -74.145600837055369, 46.65235045189246 ], [ -74.146027729791754, 46.652536578331876 ], [ -74.146041809563968, 46.652942691917602 ], [ -74.145515079936374, 46.653834697151396 ], [ -74.145741338751179, 46.65401451117561 ], [ -74.145622086433491, 46.654989026333148 ], [ -74.145032325444362, 46.654884164031479 ], [ -74.144790922598929, 46.655185020516576 ], [ -74.144393149005566, 46.655120675756521 ], [ -74.143853182605042, 46.654019888987357 ], [ -74.143710889571693, 46.654246650654521 ], [ -74.144008115592257, 46.655306098629858 ], [ -74.142688173503515, 46.655027479634811 ], [ -74.141688448136335, 46.655189209464417 ], [ -74.14103991684199, 46.65597529919895 ], [ -74.140492517346431, 46.656047547322274 ], [ -74.140498311953891, 46.656287841809501 ], [ -74.141291091803353, 46.656260924279373 ], [ -74.142242533189119, 46.656655262969537 ], [ -74.143502868985294, 46.656181920614458 ], [ -74.143748770208887, 46.655724525266322 ], [ -74.144242841111662, 46.655578745276451 ], [ -74.144730580319276, 46.656680204313581 ], [ -74.145677912130665, 46.657466693410697 ], [ -74.146213434165304, 46.657583942120539 ], [ -74.146787433861178, 46.657296926417082 ], [ -74.148647975827032, 46.658892178529911 ], [ -74.14937643487356, 46.658758696056559 ], [ -74.150220491078812, 46.658282880621229 ], [ -74.151617517831454, 46.658796909184332 ], [ -74.15156952705334, 46.659141426675205 ], [ -74.151708803202141, 46.659179469942821 ], [ -74.153246315181576, 46.658996028219313 ], [ -74.15382442618224, 46.658566326129439 ], [ -74.155123169326572, 46.658147424027852 ], [ -74.156146898923765, 46.658473495214686 ], [ -74.156162943888305, 46.659247126288484 ], [ -74.153150098204208, 46.660362458319845 ], [ -74.152376355540881, 46.661741352903526 ], [ -74.15251017741295, 46.662133311442737 ], [ -74.153192784307961, 46.66192901600526 ], [ -74.152927108465946, 46.661511210888371 ], [ -74.153277133791789, 46.661152763057281 ], [ -74.15465533091259, 46.66124065013701 ], [ -74.155730529045016, 46.660902758992215 ], [ -74.157237242137498, 46.658671873222779 ], [ -74.156584543921113, 46.658577575336842 ], [ -74.156467807404368, 46.65825261503408 ], [ -74.1560476228574, 46.658039505775193 ], [ -74.156490991392062, 46.657595980679545 ], [ -74.157774308446136, 46.658053221838209 ], [ -74.158356345066494, 46.657781893040244 ], [ -74.159547898955083, 46.658394394878293 ], [ -74.159783219277898, 46.658822792263464 ], [ -74.159573826122639, 46.659059385614817 ], [ -74.160435134911253, 46.660394276137183 ], [ -74.160164084290329, 46.661441702849615 ], [ -74.161748372255587, 46.661099481127827 ], [ -74.162427987191293, 46.661608030121101 ], [ -74.162297424448823, 46.662024898792787 ], [ -74.161659114158013, 46.662136180462632 ], [ -74.161762973565288, 46.662347473162392 ], [ -74.162345004726632, 46.662445793647308 ], [ -74.162347145546221, 46.662775004733177 ], [ -74.161144439551862, 46.663732358062987 ], [ -74.160345790233677, 46.663901902950194 ], [ -74.158796829660005, 46.663532497998119 ], [ -74.158177094825746, 46.664014960613265 ], [ -74.157143517207757, 46.663794216193594 ], [ -74.156300735837348, 46.663992155487051 ], [ -74.156345950116787, 46.664908704864089 ], [ -74.155534090417305, 46.665089671276952 ], [ -74.15547499887694, 46.665650155788732 ], [ -74.155832011881557, 46.665966627639747 ], [ -74.156658722648146, 46.665838013504903 ], [ -74.157542266023569, 46.665178223422735 ], [ -74.158307103879437, 46.665515425010646 ], [ -74.157491014554296, 46.665938116257017 ], [ -74.157482295522158, 46.666212065061508 ], [ -74.158356524502508, 46.666521916934151 ], [ -74.158108510219023, 46.667169170733075 ], [ -74.158452402023883, 46.667210037368605 ], [ -74.159259595040979, 46.666828209685931 ], [ -74.159096639249015, 46.666117216740489 ], [ -74.159685348645922, 46.665988449077211 ], [ -74.161171606721283, 46.666496224866009 ], [ -74.16151154853894, 46.667595108069598 ], [ -74.160290817265931, 46.670643090112485 ], [ -74.159200085713096, 46.670626965807507 ], [ -74.157941052542213, 46.671353249733428 ], [ -74.157258749996956, 46.672044859477786 ], [ -74.155112222587206, 46.672746186026288 ], [ -74.155035536084682, 46.673403767837193 ], [ -74.154327164307503, 46.674228344166444 ], [ -74.155109509612871, 46.673912249338336 ], [ -74.15722107126139, 46.673857320441002 ], [ -74.157586099479474, 46.672720979163351 ], [ -74.158155307509773, 46.672420492820962 ], [ -74.159123857190892, 46.673016577206866 ], [ -74.15917650707344, 46.673378453601345 ], [ -74.15853761667033, 46.67423174162753 ], [ -74.157884363484555, 46.676520983056101 ], [ -74.157173947657895, 46.677241621587115 ], [ -74.156754372521675, 46.678282104941935 ], [ -74.156017625126722, 46.679144168203862 ], [ -74.155927800948419, 46.680030801126343 ], [ -74.155319388356759, 46.680558101781223 ], [ -74.154397923507133, 46.680044288825364 ], [ -74.153451888256171, 46.679847103958949 ], [ -74.153046597403048, 46.677511776783405 ], [ -74.153940371276164, 46.677309888181256 ], [ -74.154008426985783, 46.676962885442236 ], [ -74.152828742361507, 46.676856451760678 ], [ -74.151314738116824, 46.677427262608013 ], [ -74.15161085430465, 46.67764069228307 ], [ -74.151273399286737, 46.678629972663842 ], [ -74.151834917513483, 46.679238630135544 ], [ -74.151765639408026, 46.679707113203442 ], [ -74.152323261786236, 46.681844592516406 ], [ -74.151435039634265, 46.682613169990368 ], [ -74.152566335153665, 46.6828832943511 ], [ -74.152929100887121, 46.683334270390105 ], [ -74.153227979811504, 46.684486742614787 ], [ -74.154249875681415, 46.685452400243342 ], [ -74.155171605299415, 46.685333223512913 ], [ -74.155372595588375, 46.685669672284376 ], [ -74.154652113928449, 46.686117112960332 ], [ -74.15421676021144, 46.687544567038245 ], [ -74.153404494942649, 46.688426249592716 ], [ -74.153741386947175, 46.689971408464807 ], [ -74.153516746262838, 46.69042019025057 ], [ -74.152861348707859, 46.690782234851454 ], [ -74.152924590729512, 46.692067206735985 ], [ -74.152317542402201, 46.692638683127363 ], [ -74.152094446773418, 46.693441125825238 ], [ -74.151564708311071, 46.693841876809479 ], [ -74.151602498944371, 46.694882205203214 ], [ -74.151154158925053, 46.695268319989495 ], [ -74.149939957549151, 46.695592633974037 ], [ -74.149487432383651, 46.695109174641509 ], [ -74.149309942653787, 46.695138270572834 ], [ -74.149628587350207, 46.695434392114905 ], [ -74.149343201410275, 46.696132304941479 ], [ -74.148349410901602, 46.696840900117479 ], [ -74.148394848866957, 46.697180259420328 ], [ -74.147727261011212, 46.697425933750829 ], [ -74.14754014858687, 46.6982788025432 ], [ -74.147836809495601, 46.70026384436612 ], [ -74.148236095622721, 46.700548491728824 ], [ -74.147898578609926, 46.700740921799024 ], [ -74.14788740934452, 46.701843708135577 ], [ -74.147556561085921, 46.702301227442256 ], [ -74.147720187108987, 46.703125167667388 ], [ -74.146488478195664, 46.703781038635981 ], [ -74.145725919648569, 46.703746364069552 ], [ -74.14496627856488, 46.704059802735387 ], [ -74.144639460249223, 46.703884592772802 ], [ -74.14492836065007, 46.703578797507689 ], [ -74.144807162224211, 46.702992093395416 ], [ -74.144972178601463, 46.702526568866361 ], [ -74.144020269026967, 46.703245475970014 ], [ -74.143514919300856, 46.70330342203512 ], [ -74.143561413446008, 46.703885088661096 ], [ -74.144504112475417, 46.704125075698698 ], [ -74.144110467834992, 46.705160190348408 ], [ -74.142575881981756, 46.705786236528574 ], [ -74.142203518271074, 46.706131471760415 ], [ -74.14241996957297, 46.706392888911836 ], [ -74.141206965982363, 46.707052857521276 ], [ -74.140982382457139, 46.707432799346208 ], [ -74.13912982654675, 46.708182474261299 ], [ -74.137065871936315, 46.709760120857034 ], [ -74.136167865018223, 46.709152266961532 ], [ -74.135850423975867, 46.708299571935399 ], [ -74.135930157643429, 46.707635593730572 ] ], [ [ -74.144736956114812, 46.695275564259703 ], [ -74.144747266038678, 46.6946928762775 ], [ -74.145222619663642, 46.693508024001744 ], [ -74.146155418392894, 46.691901358041797 ], [ -74.147843106828404, 46.690776162494885 ], [ -74.149136545227847, 46.69065705558603 ], [ -74.149118741792989, 46.69004355239089 ], [ -74.146811476597733, 46.690428313881526 ], [ -74.14661399374009, 46.691249104803191 ], [ -74.145426092518079, 46.692383032211296 ], [ -74.144833346620331, 46.693963126156355 ], [ -74.143472577180049, 46.694489869771509 ], [ -74.14453515922736, 46.694547109003707 ], [ -74.144505315035204, 46.695301634458467 ], [ -74.144736956114812, 46.695275564259703 ] ], [ [ -74.143144625769196, 46.652795675395218 ], [ -74.142389346590193, 46.651760380191391 ], [ -74.140105661691535, 46.650743475547173 ], [ -74.139110931971842, 46.651240060170373 ], [ -74.138232975580777, 46.650751490038203 ], [ -74.137913546046519, 46.649848975611853 ], [ -74.138587383436843, 46.649134821371739 ], [ -74.137726498401065, 46.648601153758541 ], [ -74.138351204170789, 46.648195522285739 ], [ -74.137990585593258, 46.647504755006501 ], [ -74.135785922830863, 46.647886190791702 ], [ -74.134228199759036, 46.647269425946256 ], [ -74.132973945807322, 46.647263421013804 ], [ -74.132328841324508, 46.646771705277665 ], [ -74.132518250118522, 46.64654046386871 ], [ -74.131379628565185, 46.646636639330929 ], [ -74.130349822428258, 46.645817984518303 ], [ -74.130679098410639, 46.646492671973775 ], [ -74.131220290730553, 46.646813116581178 ], [ -74.131121174406303, 46.647160687400245 ], [ -74.131661005691257, 46.647094784783292 ], [ -74.131899585384019, 46.647695460135047 ], [ -74.132538062193163, 46.647934783621864 ], [ -74.132140835059886, 46.647553973487121 ], [ -74.132458769483137, 46.647135280797535 ], [ -74.13482377608004, 46.647846458100346 ], [ -74.135576928953569, 46.6487818121049 ], [ -74.135368992614886, 46.649246847956874 ], [ -74.135601728220735, 46.649827164753738 ], [ -74.135406536194722, 46.650158338428085 ], [ -74.135101196995905, 46.649978433864973 ], [ -74.135409717526599, 46.650383876956688 ], [ -74.135221659003292, 46.651108195175489 ], [ -74.135390829628221, 46.651295986846939 ], [ -74.136450931165598, 46.650735924197754 ], [ -74.13680554522017, 46.65117350669432 ], [ -74.137167112286548, 46.651264728956001 ], [ -74.137225735579165, 46.650741978474493 ], [ -74.137503489627861, 46.650706022931089 ], [ -74.137901535521991, 46.651473258235484 ], [ -74.138750241027353, 46.651270893441598 ], [ -74.140839654921734, 46.652436345625915 ], [ -74.14152221735921, 46.652220849308293 ], [ -74.142361789728582, 46.652295922848495 ], [ -74.143144625769196, 46.652795675395218 ] ] ] } },
{ "type": "Feature", "properties": { "Hylak_id": 107056.0, "Lake_name": null, "Country": "Canada", "Continent": "North America", "Poly_src": "CanVec", "Lake_type": 1.0, "Grand_id": 0.0, "Lake_area": 2.1, "Shore_len": 11.3, "Shore_dev": 2.2, "Vol_total": 20.09, "Vol_res": 0.0, "Vol_src": 3.0, "Depth_avg": 9.6, "Dis_avg": 0.253, "Res_time": 919.2, "Elevation": 435.0, "Slope_100": 5.46, "Wshd_area": 15.6, "Pour_long": -73.935336, "Pour_lat": 46.59839, "Shape_Le_1": 0.12674090120699999, "Shape_Le_2": 0.12674090120699999, "SDA_NM": "02N", "SSDA_NM": "02_02" }, "geometry": { "type": "Polygon", "coordinates": [ [ [ -73.908496317337949, 46.609016790708701 ], [ -73.908391969383729, 46.608496930357497 ], [ -73.908821292307778, 46.608139023093756 ], [ -73.909690067717065, 46.60808822281659 ], [ -73.910779068738947, 46.608635427818257 ], [ -73.911559703532404, 46.608669882661722 ], [ -73.912539937336049, 46.608432681282103 ], [ -73.912641241827046, 46.608250527521768 ], [ -73.911746177885846, 46.607179118215456 ], [ -73.907753239224846, 46.605716859252659 ], [ -73.90697812733903, 46.604375906629294 ], [ -73.906991784975517, 46.603311075989275 ], [ -73.906533512510961, 46.603107278040056 ], [ -73.907637650631699, 46.602313391819294 ], [ -73.910507558591334, 46.602308926774946 ], [ -73.913280239713899, 46.601486794631626 ], [ -73.913933348367436, 46.600612092742772 ], [ -73.914634666719479, 46.600158262917112 ], [ -73.915347711652672, 46.598791532509296 ], [ -73.91809674499676, 46.596388883057344 ], [ -73.918248344528052, 46.594865675705229 ], [ -73.918647190371701, 46.59384889734163 ], [ -73.918424960611389, 46.592960490846778 ], [ -73.918671697124182, 46.591908129668965 ], [ -73.919999576802098, 46.589962857350166 ], [ -73.92071630031505, 46.589449762155724 ], [ -73.921873424708053, 46.589418048058967 ], [ -73.922681831947898, 46.589700884113448 ], [ -73.923677781850685, 46.592097868703831 ], [ -73.925697232694375, 46.593162078799757 ], [ -73.925636633832895, 46.594052504500461 ], [ -73.924276021568176, 46.595116071049482 ], [ -73.924189565507689, 46.595432816852714 ], [ -73.925423837965567, 46.596666978420402 ], [ -73.925821784508472, 46.598052763960254 ], [ -73.926898843141018, 46.598660556213929 ], [ -73.927104457159373, 46.598595821951378 ], [ -73.927045238083082, 46.598129374576793 ], [ -73.927329445761941, 46.597863757843875 ], [ -73.929135430427991, 46.597500922911749 ], [ -73.931766383706687, 46.597760101233035 ], [ -73.932989100105928, 46.597154580026547 ], [ -73.934173680623047, 46.597475448122871 ], [ -73.935528722392505, 46.597335606184778 ], [ -73.93666606716819, 46.596598945258108 ], [ -73.938436908133383, 46.596226512761561 ], [ -73.939989557689429, 46.595564692701252 ], [ -73.940430272539842, 46.595750629841419 ], [ -73.938844487698375, 46.596661684944294 ], [ -73.938038421603494, 46.598063795312363 ], [ -73.938293699226321, 46.599998346390869 ], [ -73.940072714385423, 46.600457423244158 ], [ -73.94018044650133, 46.601436904296982 ], [ -73.939576689976789, 46.601509504177159 ], [ -73.93938350981152, 46.601917591764384 ], [ -73.938572575004883, 46.601723531826011 ], [ -73.937140464706786, 46.602286130039865 ], [ -73.936722248405857, 46.602788698843455 ], [ -73.934577676289891, 46.603934821323605 ], [ -73.931095442342524, 46.603899072231108 ], [ -73.928797397329816, 46.604432980209047 ], [ -73.927722460020107, 46.604321439137898 ], [ -73.925213171372263, 46.603259442101049 ], [ -73.921117826543167, 46.603520369132696 ], [ -73.91938933348176, 46.604754643109288 ], [ -73.918902755571537, 46.605351375152679 ], [ -73.917925212057057, 46.605339573464775 ], [ -73.917600571706203, 46.605583357959105 ], [ -73.91715487957876, 46.606742047186806 ], [ -73.917450992718017, 46.607631154195438 ], [ -73.916403659332985, 46.609261276137524 ], [ -73.914086230442976, 46.609103334912625 ], [ -73.912937686606057, 46.608740612130688 ], [ -73.911426192446228, 46.60927461582348 ], [ -73.912075581163478, 46.610099058156315 ], [ -73.913568211460628, 46.611255053275315 ], [ -73.914920260173915, 46.611898283845285 ], [ -73.914876370031124, 46.612011160853605 ], [ -73.910633283483335, 46.610675231312754 ], [ -73.909323434017395, 46.609961159006517 ], [ -73.908496317337949, 46.609016790708701 ] ], [ [ -73.937647454149726, 46.598963028664166 ], [ -73.937381937432733, 46.598690764842523 ], [ -73.935680097413169, 46.59948663572446 ], [ -73.935351287032759, 46.600830833723059 ], [ -73.935589524737324, 46.601096363844384 ], [ -73.936019136368202, 46.601066745191417 ], [ -73.937240342867767, 46.600273359373908 ], [ -73.937745473716205, 46.599756326807551 ], [ -73.937647454149726, 46.598963028664166 ] ] ] } },
{ "type": "Feature", "properties": { "Hylak_id": 106963.0, "Lake_name": null, "Country": "Canada", "Continent": "North America", "Poly_src": "CanVec", "Lake_type": 1.0, "Grand_id": 0.0, "Lake_area": 3.71, "Shore_len": 25.6, "Shore_dev": 3.75, "Vol_total": 20.11, "Vol_res": 0.0, "Vol_src": 3.0, "Depth_avg": 5.4, "Dis_avg": 0.827, "Res_time": 281.4, "Elevation": 462.0, "Slope_100": 2.29, "Wshd_area": 51.0, "Pour_long": -74.449893, "Pour_lat": 46.654428, "Shape_Le_1": 0.27687034306399999, "Shape_Le_2": 0.27687034306399999, "SDA_NM": "02N", "SSDA_NM": "02_02" }, "geometry": { "type": "Polygon", "coordinates": [ [ [ -74.47394652832655, 46.664943586137575 ], [ -74.47348405603276, 46.66482110265941 ], [ -74.471839214624879, 46.665108491704736 ], [ -74.470164405968376, 46.663888612108849 ], [ -74.470619722067923, 46.663408425805535 ], [ -74.471827945806893, 46.66333744354516 ], [ -74.472520941154087, 46.662714609491481 ], [ -74.473474342257859, 46.662544785814966 ], [ -74.474456914223282, 46.661947091819357 ], [ -74.473460375159675, 46.661786334429131 ], [ -74.472269846879755, 46.662435638593664 ], [ -74.469317789589581, 46.66299470352385 ], [ -74.467994043775775, 46.662632516810184 ], [ -74.466162265657914, 46.661575625840044 ], [ -74.465604858586104, 46.659202572119966 ], [ -74.465727881181877, 46.658298331472508 ], [ -74.466148729932911, 46.657877437755765 ], [ -74.466659744872743, 46.656193730317753 ], [ -74.465781358909581, 46.655577212104959 ], [ -74.465215381420549, 46.655716444814388 ], [ -74.464687083464483, 46.656374840167565 ], [ -74.464372719281272, 46.657392144686725 ], [ -74.46254052608964, 46.658546420593538 ], [ -74.46138178652572, 46.658545766127055 ], [ -74.460411032772114, 46.658202308995826 ], [ -74.460438745363675, 46.65788928525027 ], [ -74.461078350498966, 46.657839191142294 ], [ -74.461276377514949, 46.657595361933282 ], [ -74.461191728381536, 46.656695289102622 ], [ -74.460557835306844, 46.656131709430284 ], [ -74.460562275564286, 46.654926890743305 ], [ -74.459828267997736, 46.654822314302628 ], [ -74.459228230833318, 46.655107360246546 ], [ -74.458601585379327, 46.654912709522563 ], [ -74.458578342467064, 46.655399873048601 ], [ -74.459409127137093, 46.655893077081814 ], [ -74.45893079247827, 46.657150806131234 ], [ -74.459656680411825, 46.658378031212564 ], [ -74.459841396345936, 46.65972751023692 ], [ -74.459828141254889, 46.660052504674944 ], [ -74.459405967243399, 46.660369620191219 ], [ -74.459263238325747, 46.661067620502507 ], [ -74.459388487946057, 46.662080855016569 ], [ -74.458797768577014, 46.662198561783313 ], [ -74.456014323706185, 46.661422860376852 ], [ -74.455653176340974, 46.661094655301177 ], [ -74.455361667495566, 46.659793318767214 ], [ -74.454643923008618, 46.658983405072064 ], [ -74.454622924854675, 46.658757552772776 ], [ -74.455867240342172, 46.658717968949176 ], [ -74.456722148925337, 46.657791604420559 ], [ -74.456906717581049, 46.657277638602686 ], [ -74.456671634917427, 46.656271586394453 ], [ -74.455755558714515, 46.655674267818483 ], [ -74.455958740012179, 46.654994049881971 ], [ -74.455616946587696, 46.654481970024591 ], [ -74.454586720145329, 46.653786686007585 ], [ -74.454283594468293, 46.653922684687274 ], [ -74.454089630982821, 46.654386460027411 ], [ -74.452736323209876, 46.65473508477195 ], [ -74.4523540241033, 46.655334622043355 ], [ -74.450176821719296, 46.655420038747842 ], [ -74.44963162283895, 46.654350073087784 ], [ -74.449639589562466, 46.653867530689233 ], [ -74.4499961876095, 46.653431286029445 ], [ -74.44981032731728, 46.652765790808225 ], [ -74.448724843469762, 46.65209850802222 ], [ -74.449726690565328, 46.651782923876823 ], [ -74.450715894173626, 46.652568382343269 ], [ -74.452871291345218, 46.652611224193933 ], [ -74.453885186191428, 46.653303781897556 ], [ -74.454332945602673, 46.653224279007539 ], [ -74.455338477313916, 46.651308425788841 ], [ -74.455887821353585, 46.650973293983348 ], [ -74.457096096156377, 46.650816528857384 ], [ -74.45707607148303, 46.650671995995665 ], [ -74.456081844222538, 46.650607921864605 ], [ -74.455302775930065, 46.650162090676339 ], [ -74.455498697676617, 46.64916803086696 ], [ -74.456137526566238, 46.648761447350019 ], [ -74.457015194905651, 46.648687922629918 ], [ -74.457255366495943, 46.648219189808898 ], [ -74.457215600533104, 46.647572129928783 ], [ -74.457702875272133, 46.647055721892052 ], [ -74.457402937812631, 46.646389972724982 ], [ -74.457577573283771, 46.64556391820151 ], [ -74.458226749000886, 46.645123364057071 ], [ -74.459150129445931, 46.644933767993706 ], [ -74.457740088256244, 46.6442923598729 ], [ -74.456768179457654, 46.643009168088938 ], [ -74.455829266489161, 46.639503907823702 ], [ -74.456000090466162, 46.638998796244387 ], [ -74.45491040191942, 46.638437726614036 ], [ -74.454890134482497, 46.63807610726348 ], [ -74.454115887381917, 46.637296767958539 ], [ -74.454172038474908, 46.636901246091803 ], [ -74.45365247049412, 46.637087101133794 ], [ -74.451792692416518, 46.635229866710468 ], [ -74.451756562941313, 46.63441757927113 ], [ -74.45235447428756, 46.63450073826197 ], [ -74.452902048404212, 46.633602596084678 ], [ -74.45231866060908, 46.633108772674355 ], [ -74.452923210790104, 46.632174753508082 ], [ -74.452582029495815, 46.631686755095551 ], [ -74.452568456657005, 46.631182401798078 ], [ -74.451508562365333, 46.630971822166643 ], [ -74.451113109620366, 46.630632594042375 ], [ -74.450987982548099, 46.630247676677712 ], [ -74.45132366101106, 46.629940601153372 ], [ -74.450897722735192, 46.629410745344835 ], [ -74.449821396227406, 46.629905804468137 ], [ -74.448847206233765, 46.629265190837828 ], [ -74.449760131002506, 46.629077180838763 ], [ -74.449859170595488, 46.628710696052977 ], [ -74.449533706504198, 46.62839406280461 ], [ -74.448742118013072, 46.628372825624766 ], [ -74.448940739899825, 46.627865835877962 ], [ -74.448296187958988, 46.626724075836492 ], [ -74.449935144513731, 46.625884646353917 ], [ -74.45154022298172, 46.625570895117512 ], [ -74.452690942725781, 46.624879366754286 ], [ -74.455258757412764, 46.622554701504257 ], [ -74.45604561845397, 46.621416794385716 ], [ -74.456509748496771, 46.621360148985808 ], [ -74.456632118586001, 46.620973224723926 ], [ -74.457425536532526, 46.620632954758506 ], [ -74.458200022203783, 46.619766124851054 ], [ -74.458976762548815, 46.619407786926097 ], [ -74.458904020433138, 46.618919415708113 ], [ -74.459353257594259, 46.618737379460029 ], [ -74.462982313232061, 46.618926746461533 ], [ -74.463214076083503, 46.619097611848119 ], [ -74.463137963318445, 46.619943308485944 ], [ -74.461714691061232, 46.621113525052387 ], [ -74.460721157619119, 46.62158963170333 ], [ -74.459307774376938, 46.622953599891069 ], [ -74.457518543084888, 46.623662444008289 ], [ -74.456300206754534, 46.624875481278806 ], [ -74.455357489288645, 46.627429706128368 ], [ -74.454172193102863, 46.628238784034167 ], [ -74.453865473161798, 46.628737206451405 ], [ -74.454159127541715, 46.630865047054677 ], [ -74.454893733737393, 46.631549530842271 ], [ -74.455311186891521, 46.633633618555521 ], [ -74.456623120692228, 46.635334593861849 ], [ -74.458067017750764, 46.636896102770585 ], [ -74.459958668605807, 46.637759025127295 ], [ -74.460328112113743, 46.638233413394509 ], [ -74.460095672057122, 46.638584614598102 ], [ -74.460936596281215, 46.638930186370025 ], [ -74.461288131786588, 46.639345799760051 ], [ -74.461467313759826, 46.639292174712516 ], [ -74.461470893607242, 46.638429894856422 ], [ -74.46309023608805, 46.637343845631889 ], [ -74.463629688118758, 46.637764397323458 ], [ -74.463953239520379, 46.637485873776605 ], [ -74.464103359849474, 46.636568779086723 ], [ -74.464753031534372, 46.636189424824479 ], [ -74.46596320664429, 46.636362663494509 ], [ -74.466476737590739, 46.636887187742353 ], [ -74.468811613806167, 46.637058126139664 ], [ -74.469200382332716, 46.637550293287148 ], [ -74.468888273556047, 46.638738725797559 ], [ -74.470423077889379, 46.639181617176625 ], [ -74.469246771530123, 46.640512060163758 ], [ -74.468298391298717, 46.640890449068934 ], [ -74.468340201557481, 46.641138528185998 ], [ -74.469340167650898, 46.64194785791193 ], [ -74.469552519502656, 46.642547711876652 ], [ -74.469457268666602, 46.643038025958496 ], [ -74.46854487559763, 46.643771975285169 ], [ -74.467560668363404, 46.644158056701187 ], [ -74.464616794669553, 46.644561002910756 ], [ -74.464033442772248, 46.644444458754144 ], [ -74.462035169225786, 46.643228278604077 ], [ -74.460931731358144, 46.643098970226127 ], [ -74.460307708843374, 46.643302356938875 ], [ -74.460959510701898, 46.6435949258194 ], [ -74.462694619534005, 46.643755325630565 ], [ -74.463437717609068, 46.64453757982443 ], [ -74.463603320611369, 46.645038823864148 ], [ -74.463422078273723, 46.645820861529117 ], [ -74.462686522887296, 46.646325158654605 ], [ -74.461692063278122, 46.646586079799881 ], [ -74.461394033749315, 46.647148461662958 ], [ -74.461546697906527, 46.647348604783694 ], [ -74.461831681762845, 46.647350927143243 ], [ -74.462923318790516, 46.646716449885488 ], [ -74.46355303913478, 46.647212653691092 ], [ -74.463891701698003, 46.64722001365196 ], [ -74.467063475877865, 46.646348924060185 ], [ -74.468382287391023, 46.646349824256596 ], [ -74.46958868024025, 46.646995025606095 ], [ -74.4718003240732, 46.649028480033529 ], [ -74.471929034459635, 46.650110299112242 ], [ -74.472351207053109, 46.650750492878871 ], [ -74.471879192705373, 46.651816872801959 ], [ -74.471878229505151, 46.65246912826921 ], [ -74.47260216555452, 46.653646323340134 ], [ -74.473590040024334, 46.653991373237595 ], [ -74.472478114455143, 46.654906976220936 ], [ -74.471100581058991, 46.655230734451742 ], [ -74.470802817147188, 46.655627812414259 ], [ -74.471439175700169, 46.65607698379582 ], [ -74.472310875398634, 46.656127763742504 ], [ -74.473601954286863, 46.655821472280323 ], [ -74.474815519462325, 46.655173794178403 ], [ -74.475637334399565, 46.65525707998875 ], [ -74.475443838254236, 46.655874228664487 ], [ -74.476003108403688, 46.656510717145089 ], [ -74.476499460045403, 46.657918394293958 ], [ -74.476735681811775, 46.659626589902139 ], [ -74.477391418758842, 46.660851622096743 ], [ -74.478304437744498, 46.661681976714242 ], [ -74.478238705529776, 46.662002791109487 ], [ -74.477508100950544, 46.662411028142593 ], [ -74.477975417723769, 46.662704417669772 ], [ -74.478129920459722, 46.6634718684154 ], [ -74.477288104347778, 46.663793822382473 ], [ -74.477801720427422, 46.664101617906304 ], [ -74.477950985645634, 46.665038991336658 ], [ -74.478279144354531, 46.665443077094722 ], [ -74.477925170272229, 46.666197709781969 ], [ -74.477968384400441, 46.666508387712497 ], [ -74.478391946001835, 46.666812377202938 ], [ -74.478218562377123, 46.667660664876053 ], [ -74.478480655804375, 46.668283906248249 ], [ -74.477197932682884, 46.669006319979289 ], [ -74.477114498209843, 46.669260760881357 ], [ -74.475516912895245, 46.669232935017668 ], [ -74.475080229669814, 46.668994198921531 ], [ -74.475149302523619, 46.668106025784908 ], [ -74.474419266759298, 46.666844854519425 ], [ -74.47394652832655, 46.664943586137575 ] ], [ [ -74.469156041884133, 46.656667107572815 ], [ -74.469172780723298, 46.655782768525611 ], [ -74.468169965475582, 46.655500712265628 ], [ -74.468008059565861, 46.655552795315486 ], [ -74.468328406374795, 46.65579561675704 ], [ -74.468353388412865, 46.65623562608679 ], [ -74.466904876686485, 46.656997692092474 ], [ -74.466907532325422, 46.657343102099226 ], [ -74.467628018716141, 46.65739038530478 ], [ -74.467965731321428, 46.65819398110478 ], [ -74.468390739062386, 46.658407479776614 ], [ -74.468426405651385, 46.659137865725228 ], [ -74.468558976163166, 46.659233171240103 ], [ -74.468806348360815, 46.659214893162186 ], [ -74.469507145402645, 46.658526010430442 ], [ -74.470211742115453, 46.658350046902697 ], [ -74.469156041884133, 46.656667107572815 ] ], [ [ -74.464432107599919, 46.64959215997208 ], [ -74.464169012279356, 46.649148171457817 ], [ -74.463153455510749, 46.64925349964799 ], [ -74.462644669097145, 46.648769267792268 ], [ -74.462488816419722, 46.648130700821703 ], [ -74.462216423961834, 46.648012956342903 ], [ -74.460777006575881, 46.648894982001238 ], [ -74.460568822436343, 46.649373335048644 ], [ -74.461360998084928, 46.649857936733191 ], [ -74.463582515861432, 46.650023584660104 ], [ -74.464432107599919, 46.64959215997208 ] ] ] } },
{ "type": "Feature", "properties": { "Hylak_id": 107128.0, "Lake_name": null, "Country": "Canada", "Continent": "North America", "Poly_src": "CanVec", "Lake_type": 1.0, "Grand_id": 0.0, "Lake_area": 8.7, "Shore_len": 31.55, "Shore_dev": 3.02, "Vol_total": 112.69, "Vol_res": 0.0, "Vol_src": 3.0, "Depth_avg": 13.0, "Dis_avg": 2.112, "Res_time": 617.5, "Elevation": 414.0, "Slope_100": 4.74, "Wshd_area": 125.8, "Pour_long": -74.214123, "Pour_lat": 46.547272, "Shape_Le_1": 0.35018488569099998, "Shape_Le_2": 0.35018488569099998, "SDA_NM": "02N", "SSDA_NM": "02_02" }, "geometry": { "type": "Polygon", "coordinates": [ [ [ -74.198035837615208, 46.550445211667686 ], [ -74.195849751768094, 46.549322478843507 ], [ -74.194760141407514, 46.549434658935652 ], [ -74.194630937782151, 46.548770316187039 ], [ -74.196098080362759, 46.54781445788111 ], [ -74.196018728713753, 46.547142275777105 ], [ -74.196562507002383, 46.546635179608501 ], [ -74.196634230052098, 46.546145893268516 ], [ -74.200107702809191, 46.543510659540374 ], [ -74.201450137042727, 46.54131159265792 ], [ -74.202146822150027, 46.541131250232027 ], [ -74.202522354921783, 46.5403179567069 ], [ -74.203516720292939, 46.539819478217808 ], [ -74.203544095094287, 46.539448784282158 ], [ -74.204766037628588, 46.539180725695978 ], [ -74.204563459378704, 46.538322437015822 ], [ -74.20341088530553, 46.538029977350249 ], [ -74.202206160095855, 46.536870127344862 ], [ -74.202150957697341, 46.536052550903882 ], [ -74.201850567517923, 46.535605352165312 ], [ -74.200717760950127, 46.534716867108884 ], [ -74.20091223174451, 46.534114848284332 ], [ -74.200705817276571, 46.533695597290738 ], [ -74.199523298695482, 46.533063063948639 ], [ -74.198350626670262, 46.532797515531293 ], [ -74.197824981550156, 46.53297021571445 ], [ -74.197027469052344, 46.533760592301732 ], [ -74.195722616224216, 46.533489140456567 ], [ -74.195163626630929, 46.533139204548327 ], [ -74.194579821636424, 46.53190459824296 ], [ -74.193280539714294, 46.531540035823241 ], [ -74.193053598441693, 46.530861044950022 ], [ -74.19427220523518, 46.528546159366805 ], [ -74.193401839036198, 46.527245513762054 ], [ -74.192974109813676, 46.526956354018331 ], [ -74.193285376382477, 46.526038516311303 ], [ -74.195187963743507, 46.523644993863357 ], [ -74.196198747492744, 46.523363906757744 ], [ -74.196007465537377, 46.521589691990485 ], [ -74.196685604915714, 46.521321947625601 ], [ -74.197140537953786, 46.521884333859632 ], [ -74.197474331952634, 46.521566022423976 ], [ -74.19840125367331, 46.521912439462817 ], [ -74.198525056759081, 46.521837670703221 ], [ -74.198418629876201, 46.521034365292792 ], [ -74.196754318725112, 46.520400499674054 ], [ -74.195721839900216, 46.518569517510073 ], [ -74.193985614268385, 46.517806308665399 ], [ -74.191247992465236, 46.515704536800101 ], [ -74.189458307385678, 46.51523939716472 ], [ -74.186790637169537, 46.51550686350236 ], [ -74.185668402245057, 46.514612791899886 ], [ -74.187706082404134, 46.514352893387418 ], [ -74.18923346469397, 46.514470435848139 ], [ -74.190229213302885, 46.513665807437739 ], [ -74.190618530591593, 46.513623123153586 ], [ -74.194024611144982, 46.514407924232735 ], [ -74.196689297313782, 46.5145259584448 ], [ -74.196707143513649, 46.514391670944029 ], [ -74.195122075269055, 46.513091272186713 ], [ -74.196286673510301, 46.51220177125785 ], [ -74.196229860487051, 46.512009431999317 ], [ -74.194755713515718, 46.510730224245101 ], [ -74.19169517338311, 46.509368560373176 ], [ -74.191622704298439, 46.509110416138867 ], [ -74.192024958696237, 46.508790803912042 ], [ -74.191866725477993, 46.508381314736795 ], [ -74.190938782500098, 46.507847904985439 ], [ -74.189827783312339, 46.507593958774656 ], [ -74.188705453590714, 46.506817725142668 ], [ -74.187500991326644, 46.506589961120383 ], [ -74.1859472413568, 46.506668462397791 ], [ -74.18448772182002, 46.506002076206038 ], [ -74.183976557416003, 46.505514714817672 ], [ -74.182133411978313, 46.505295192726805 ], [ -74.181152661762113, 46.504860874347123 ], [ -74.179511442588662, 46.504802561916726 ], [ -74.178525737513027, 46.504367887052602 ], [ -74.177472042637064, 46.504380761889209 ], [ -74.176056046688075, 46.503827340190128 ], [ -74.175295076438957, 46.503934922153178 ], [ -74.175404313496273, 46.50319550077478 ], [ -74.175123835894127, 46.502597724116157 ], [ -74.173634285442489, 46.501176938332733 ], [ -74.173392226515318, 46.501183549237375 ], [ -74.173058565493321, 46.501633836947626 ], [ -74.172025655736519, 46.500902676540626 ], [ -74.171414869968103, 46.500956954454601 ], [ -74.17058507794961, 46.501551422711159 ], [ -74.170325974996899, 46.501148506916934 ], [ -74.169754290015149, 46.501063559644756 ], [ -74.169085811580601, 46.500581207850317 ], [ -74.16962861431459, 46.500139091175946 ], [ -74.170394373990959, 46.500406418375654 ], [ -74.170600740135384, 46.50023346008426 ], [ -74.169797819668744, 46.49981826823705 ], [ -74.170060102561862, 46.499679110247854 ], [ -74.169751079312988, 46.499455350808766 ], [ -74.16811864169928, 46.499497539897 ], [ -74.167568398357105, 46.499214092132355 ], [ -74.167481216911412, 46.498855903510659 ], [ -74.166916020172579, 46.498671527000205 ], [ -74.166861920530849, 46.498243556559963 ], [ -74.167948615746894, 46.497377615753521 ], [ -74.168091022357743, 46.49654795717025 ], [ -74.168992716377744, 46.496401421159774 ], [ -74.1696838726848, 46.496724122867683 ], [ -74.16965020297053, 46.496937317403152 ], [ -74.170157941471643, 46.497284657097097 ], [ -74.170136286393358, 46.497711543437681 ], [ -74.170649999344619, 46.498527032476488 ], [ -74.172219733649371, 46.499203406763215 ], [ -74.172750626203836, 46.499705022242672 ], [ -74.174182448091372, 46.499875292186616 ], [ -74.175991137293096, 46.500477246276397 ], [ -74.178322049387035, 46.500704991353174 ], [ -74.179858109466863, 46.501394096193032 ], [ -74.186167830357434, 46.502760920975525 ], [ -74.187832174706571, 46.502749626904361 ], [ -74.186222509481837, 46.50125153606475 ], [ -74.184486605495906, 46.500057235950884 ], [ -74.182815960602582, 46.499580545462642 ], [ -74.182411241524264, 46.499671539782426 ], [ -74.181737821240219, 46.49900552516894 ], [ -74.18108140027438, 46.498979690750851 ], [ -74.180923302428994, 46.498695310817418 ], [ -74.181313344363303, 46.498526294744018 ], [ -74.181204984714128, 46.49820067794667 ], [ -74.182025524751623, 46.498050844021449 ], [ -74.182164966900928, 46.497743905863544 ], [ -74.182016861185275, 46.497406928978329 ], [ -74.182348716389072, 46.49728590963408 ], [ -74.179428222633689, 46.496771666042427 ], [ -74.177648545360739, 46.496712262091172 ], [ -74.177392287931255, 46.49626969654279 ], [ -74.177035324089843, 46.496118426670428 ], [ -74.17701629750394, 46.495894119053013 ], [ -74.176425792068869, 46.496086261303113 ], [ -74.176025319694958, 46.495528576955323 ], [ -74.176691569661116, 46.495018376277095 ], [ -74.176734496467077, 46.494682937194639 ], [ -74.175616972727369, 46.492711712401679 ], [ -74.174178235971794, 46.492063970324196 ], [ -74.171119931207983, 46.491703327142751 ], [ -74.171222950691771, 46.491216940059275 ], [ -74.170819573731237, 46.490838553914152 ], [ -74.170855698976837, 46.490094478216562 ], [ -74.171708700857806, 46.489766979050138 ], [ -74.17351279650623, 46.488074980728136 ], [ -74.173117359579138, 46.486958251989982 ], [ -74.172465537460738, 46.486264406658172 ], [ -74.172942163545116, 46.48575282076542 ], [ -74.172537138044717, 46.485482108087957 ], [ -74.172802794250245, 46.485134061362125 ], [ -74.17467932712033, 46.487358976033804 ], [ -74.174571388505385, 46.487815562940199 ], [ -74.17480633558273, 46.488084650700067 ], [ -74.175292627239827, 46.488127073289668 ], [ -74.175918819596532, 46.487780445103766 ], [ -74.175988404491065, 46.487447023731384 ], [ -74.176967412678735, 46.487281242505148 ], [ -74.177298843283651, 46.487619891190811 ], [ -74.177812661280612, 46.487724423298665 ], [ -74.178581387413857, 46.48869910611748 ], [ -74.180673378072257, 46.48955382696407 ], [ -74.180866031090005, 46.489831122711195 ], [ -74.181904774884117, 46.490076061724963 ], [ -74.182709831818741, 46.490629455616421 ], [ -74.183826116447548, 46.490469143646784 ], [ -74.184460053608248, 46.491089421496859 ], [ -74.186456263696243, 46.491689924109501 ], [ -74.189363068802905, 46.493525822652593 ], [ -74.189748132952744, 46.493905016076994 ], [ -74.190063680147688, 46.495021732168368 ], [ -74.194554175526761, 46.498032822788076 ], [ -74.194836161037742, 46.4986490880842 ], [ -74.195189990354251, 46.498650388926066 ], [ -74.195696193851404, 46.497896123937544 ], [ -74.196350069395862, 46.497957223928431 ], [ -74.197118657029108, 46.499337579837196 ], [ -74.198912134829058, 46.500214006856893 ], [ -74.201152738467684, 46.501838881718797 ], [ -74.202383220799945, 46.501922684349374 ], [ -74.202983431158529, 46.503242997954885 ], [ -74.203460823465889, 46.503387784206787 ], [ -74.203999897053166, 46.503974085149537 ], [ -74.204194602668693, 46.503959873888654 ], [ -74.204108163630053, 46.503427946568841 ], [ -74.205062570687616, 46.503844492900008 ], [ -74.205871699092782, 46.504841770957029 ], [ -74.205865274461203, 46.505087491180596 ], [ -74.205421799083737, 46.505292461362622 ], [ -74.205348633565308, 46.50565707980973 ], [ -74.206494735778392, 46.506743600420585 ], [ -74.207505249492058, 46.50677739804258 ], [ -74.208498465003473, 46.507824282414234 ], [ -74.209540122602746, 46.509582929849238 ], [ -74.209521460991866, 46.510155568052745 ], [ -74.208221630947861, 46.512220415964542 ], [ -74.207566622969267, 46.513745686745111 ], [ -74.207941989536465, 46.514891072980276 ], [ -74.207427396550827, 46.51553709208472 ], [ -74.208915171122214, 46.516088157717839 ], [ -74.209942584260816, 46.518714138056673 ], [ -74.210868794099355, 46.519333692645318 ], [ -74.211494849854972, 46.520461901199305 ], [ -74.212096179056772, 46.521006415735329 ], [ -74.212636303950177, 46.522664672099452 ], [ -74.211806428900246, 46.523601649058861 ], [ -74.212404804090312, 46.523638662274031 ], [ -74.214868049624485, 46.524832082459653 ], [ -74.21715888235083, 46.527418102793952 ], [ -74.21982216878169, 46.528818207741708 ], [ -74.220425667002047, 46.529381003330904 ], [ -74.222958169317849, 46.535020441134222 ], [ -74.224296269110241, 46.536396930205086 ], [ -74.224240604676524, 46.537017368727696 ], [ -74.22359967704152, 46.537598575763205 ], [ -74.222835729477907, 46.537356561959719 ], [ -74.222319553861183, 46.537544322504935 ], [ -74.222301326188386, 46.538052492584761 ], [ -74.222522398530415, 46.5382863317271 ], [ -74.224252906183082, 46.538979492056008 ], [ -74.222986305773702, 46.53941179899055 ], [ -74.222404614169562, 46.54002265864051 ], [ -74.222041841435143, 46.539713707995404 ], [ -74.222193668482177, 46.538909690783839 ], [ -74.222028224442184, 46.538841137053424 ], [ -74.218695408358201, 46.539670885157456 ], [ -74.217559689429976, 46.539642891855394 ], [ -74.216913554007121, 46.539051367299294 ], [ -74.216926640213515, 46.538541065871357 ], [ -74.216596756182, 46.538281566766081 ], [ -74.216492912494758, 46.537716154044183 ], [ -74.213781135871827, 46.535312875792577 ], [ -74.213731045045321, 46.534876527986697 ], [ -74.211484338230449, 46.534431961286828 ], [ -74.211313014732696, 46.533273303066117 ], [ -74.210665626540063, 46.532451712600654 ], [ -74.209390683427841, 46.531512399257096 ], [ -74.208235812204492, 46.530952439793907 ], [ -74.205593398991056, 46.531393019064666 ], [ -74.205277584599287, 46.53240691473399 ], [ -74.205175787747464, 46.533601609960691 ], [ -74.205408626310501, 46.534549772021123 ], [ -74.204864850004597, 46.535962185880088 ], [ -74.205053099971337, 46.53629409168623 ], [ -74.204868847523827, 46.537550599015304 ], [ -74.208741936579258, 46.536892721814503 ], [ -74.209948322430634, 46.537348492699039 ], [ -74.210531379741994, 46.538639593093713 ], [ -74.210573208265203, 46.538935768274676 ], [ -74.209782330326931, 46.540212023855084 ], [ -74.208027497491429, 46.542400793068943 ], [ -74.207788868816593, 46.543435773546562 ], [ -74.208128753218233, 46.543543110295268 ], [ -74.209452210560983, 46.542889046886316 ], [ -74.210796763245185, 46.543540906211376 ], [ -74.215046519077248, 46.54446272397773 ], [ -74.216242130510011, 46.54556627719991 ], [ -74.215917027355019, 46.546553133334065 ], [ -74.216149947790782, 46.547176911624177 ], [ -74.216041788733094, 46.547636353591741 ], [ -74.215701036703635, 46.548211190693344 ], [ -74.214870126328336, 46.548749122309729 ], [ -74.213040540114363, 46.548979726996286 ], [ -74.211002442735492, 46.549756162028942 ], [ -74.207971303152021, 46.549924381123297 ], [ -74.205204055373841, 46.550568504296557 ], [ -74.198035837615208, 46.550445211667686 ] ] ] } }
]
}
