{
"type": "FeatureCollection",
"name": "finalcat_hru_info",
"crs": { "type": "name", "properties": { "name": "urn:ogc:def:crs:OGC:1.3:CRS84" } },
"features": [
{ "type": "Feature", "properties": { "SubId": 23000187, "HRU_IsLake": -1, "Landuse_ID": 1, "Veg_ID": 1, "Soil_ID": 1, "O_ID_1": 1, "O_ID_2": 1, "HRU_CenX": -74.292950618756166, "HRU_CenY": 46.787898972247802, "HRU_Area": 20152800.0, "HRU_ID": 1, "LAND_USE_C": "Landuse_Land_HRU", "SOIL_PROF": "Soil_Land_HRU", "VEG_C": "Veg_Land_HRU", "DowSubId": 23000210, "RivSlope": 0.0083489353385240005, "RivLength": 10329.777054239999, "BasSlope": 22.099031370855453, "BasAspect": 177.06692768542581, "BasArea": 20152800.0, "BkfWidth": 11.615378439400001, "BkfDepth": 0.35973631760199998, "Lake_Cat": 0.0, "HyLakeId": 0, "LakeVol": 0.0, "LakeDepth": 0.0, "LakeArea": 0.0, "Laketype": 0.0, "Has_POI": 0, "MeanElev": 1478.6664013686682, "FloodP_n": 0.1, "Q_Mean": 2.2712421501419522, "Ch_n": 0.064201449967639004, "DrainArea": 44789400.0, "Strahler": 2.0, "Seg_ID": 101.0, "Seg_order": 2.0, "Max_DEM": 1191.0, "Min_DEM": 1140.0, "Obs_NM": "<NA>", "SRC_obs": "<NA>", "centroid_x": -74.292927677155589, "centroid_y": 46.787907335139884, "DA_Chn_L": 15715.584412300001, "DA_Slope": 15.4050548178, "DA_Chn_Slp": 0.0094174035223499996, "HRU_S_mean": 22.099031370855453, "HRU_A_mean": 177.06692768542581, "HRU_E_mean": 1478.6664013686682, "HRU_A_G": 20506499.999995984 }, "geometry": { "type": "MultiPolygon", "coordinates": [ [ [ [ -74.266728557482836, 46.818180820683146 ], [ -74.262759910903867, 46.782819307883159 ], [ -74.320501359166471, 46.756419651934351 ], [ -74.328821771129114, 46.79220726463214 ], [ -74.266728557482836, 46.818180820683146 ] ] ], [ [ [ -74.266603799371723, 46.81843418645019 ], [ -74.267097640169709, 46.818266462850303 ], [ -74.266972883955575, 46.818519829205194 ], [ -74.266603799371723, 46.81843418645019 ] ] ], [ [ [ -74.28029732679947, 46.773060054171701 ], [ -74.279804047469597, 46.773227816323519 ], [ -74.279928600017968, 46.772974480805907 ], [ -74.28029732679947, 46.773060054171701 ] ] ] ] } },
{ "type": "Feature", "properties": { "SubId": 23000188, "HRU_IsLake": -1, "Landuse_ID": 1, "Veg_ID": 1, "Soil_ID": 1, "O_ID_1": 1, "O_ID_2": 1, "HRU_CenX": -74.361539596150905, "HRU_CenY": 46.787217847716484, "HRU_Area": 43673400.0, "HRU_ID": 2, "LAND_USE_C": "Landuse_Land_HRU", "SOIL_PROF": "Soil_Land_HRU", "VEG_C": "Veg_Land_HRU", "DowSubId": 23000210, "RivSlope": -1.2345, "RivLength": -1.2345, "BasSlope": 25.886428090579283, "BasAspect": 172.20349713309537, "BasArea": 43673400.0, "BkfWidth": 11.474232238500001, "BkfDepth": 0.35710706944199999, "Lake_Cat": 0.0, "HyLakeId": 0, "LakeVol": 0.0, "LakeDepth": 0.0, "LakeArea": 0.0, "Laketype": 0.0, "Has_POI": 0, "MeanElev": 1506.2462408933391, "FloodP_n": -1.2345, "Q_Mean": 2.410503921114322, "Ch_n": -1.2345, "DrainArea": 43673400.0, "Strahler": 1.0, "Seg_ID": 3.0, "Seg_order": 1.0, "Max_DEM": -1.2345, "Min_DEM": -1.2345, "Obs_NM": "<NA>", "SRC_obs": "<NA>", "centroid_x": -74.361552510055489, "centroid_y": 46.787229520366942, "DA_Chn_L": 11259.7770542, "DA_Slope": 19.884643819299999, "DA_Chn_Slp": 0.0099469109788400002, "HRU_S_mean": 25.886428090579283, "HRU_A_mean": 172.20349713309537, "HRU_E_mean": 1506.2462408933391, "HRU_A_G": 44458199.999996506 }, "geometry": { "type": "MultiPolygon", "coordinates": [ [ [ [ -74.417827258385756, 46.798366589306021 ], [ -74.418565680734687, 46.798536653837431 ], [ -74.417703433590731, 46.798620136758473 ], [ -74.417827258385756, 46.798366589306021 ] ] ], [ [ [ -74.416595805142535, 46.798365027398688 ], [ -74.41708656496364, 46.79904219579538 ], [ -74.415978929415843, 46.798787078607319 ], [ -74.416595805142535, 46.798365027398688 ] ] ], [ [ [ -74.415978929415843, 46.798787078607319 ], [ -74.349076998220738, 46.835551756784831 ], [ -74.340694173310183, 46.808216395398276 ], [ -74.319062561092863, 46.798696729549633 ], [ -74.329319051859002, 46.791193578977122 ], [ -74.314700753019423, 46.73560683088364 ], [ -74.335473525869176, 46.737598457677528 ], [ -74.349229380891941, 46.770687044993657 ], [ -74.37332806413346, 46.776820455056473 ], [ -74.396920654071849, 46.750392662671501 ], [ -74.415978929415843, 46.798787078607319 ] ] ], [ [ [ -74.34918419921776, 46.752338515823162 ], [ -74.349063696853108, 46.751746412618409 ], [ -74.349432379694505, 46.751831702972609 ], [ -74.34918419921776, 46.752338515823162 ] ] ] ] } },
{ "type": "Feature", "properties": { "SubId": 23000197, "HRU_IsLake": -1, "Landuse_ID": 1, "Veg_ID": 1, "Soil_ID": 1, "O_ID_1": 1, "O_ID_2": 1, "HRU_CenX": -74.033907486751446, "HRU_CenY": 46.645111935314816, "HRU_Area": 21775500.0, "HRU_ID": 3, "LAND_USE_C": "Landuse_Land_HRU", "SOIL_PROF": "Soil_Land_HRU", "VEG_C": "Veg_Land_HRU", "DowSubId": 23012041, "RivSlope": 0.0091886736022770005, "RivLength": 10447.64501987, "BasSlope": 27.649362595790038, "BasAspect": 166.17042803105304, "BasArea": 21775500.0, "BkfWidth": 51.552445151699999, "BkfDepth": 0.87965794105600004, "Lake_Cat": 0.0, "HyLakeId": 0, "LakeVol": 0.0, "LakeDepth": 0.0, "LakeArea": 0.0, "Laketype": 0.0, "Has_POI": 0, "MeanElev": 1387.8161439893831, "FloodP_n": 0.102677063855101, "Q_Mean": 50.866332604323595, "Ch_n": 0.065813307055374998, "DrainArea": 970291800.00000024, "Strahler": 3.0, "Seg_ID": 117.0, "Seg_order": 1.0, "Max_DEM": 1092.0, "Min_DEM": 1040.0, "Obs_NM": "<NA>", "SRC_obs": "<NA>", "centroid_x": -74.033922348439106, "centroid_y": 46.645047064335969, "DA_Chn_L": 90787.556262099999, "DA_Slope": 3.7473194367799998, "DA_Chn_Slp": 0.013746377272199999, "HRU_S_mean": 27.649362595790038, "HRU_A_mean": 166.17042803105304, "HRU_E_mean": 1387.8161439893831, "HRU_A_G": 22238099.999998599 }, "geometry": { "type": "MultiPolygon", "coordinates": [ [ [ [ -74.02155863871053, 46.702403857044011 ], [ -73.999289585017024, 46.674551199329706 ], [ -74.011298968877654, 46.635571932707578 ], [ -74.040201342587494, 46.6293928857976 ], [ -74.036847772853676, 46.600643152926871 ], [ -74.051767341169878, 46.592864089056434 ], [ -74.069677622871367, 46.614588267882915 ], [ -74.048471449235109, 46.635859660545002 ], [ -74.056507828684559, 46.652720172323249 ], [ -74.026808814508584, 46.662957660604945 ], [ -74.02155863871053, 46.702403857044011 ] ] ], [ [ [ -74.035158834729529, 46.608999664839359 ], [ -74.035400204817023, 46.609338982753549 ], [ -74.03503333522896, 46.609252494344815 ], [ -74.035158834729529, 46.608999664839359 ] ] ] ] } },
{ "type": "Feature", "properties": { "SubId": 23000198, "HRU_IsLake": -1, "Landuse_ID": 1, "Veg_ID": 1, "Soil_ID": 1, "O_ID_1": 1, "O_ID_2": 1, "HRU_CenX": -74.002177929510893, "HRU_CenY": 46.607415924988246, "HRU_Area": 29941200.0, "HRU_ID": 4, "LAND_USE_C": "Landuse_Land_HRU", "SOIL_PROF": "Soil_Land_HRU", "VEG_C": "Veg_Land_HRU", "DowSubId": 23012041, "RivSlope": 0.0043651168593090003, "RivLength": 17639.848480986002, "BasSlope": 25.472536478930607, "BasAspect": 187.51723731963708, "BasArea": 29941200.0, "BkfWidth": 15.8029563391, "BkfDepth": 0.43272030090500002, "Lake_Cat": 0.0, "HyLakeId": 0, "LakeVol": 0.0, "LakeDepth": 0.0, "LakeArea": 0.0, "Laketype": 0.0, "Has_POI": 0, "MeanElev": 1422.3655339626837, "FloodP_n": 0.1007578107343, "Q_Mean": 4.3202495160335523, "Ch_n": 0.043427364312849999, "DrainArea": 84550500.0, "Strahler": 2.0, "Seg_ID": 99.0, "Seg_order": 1.0, "Max_DEM": 1135.0, "Min_DEM": 1085.0, "Obs_NM": "<NA>", "SRC_obs": "<NA>", "centroid_x": -74.002155049199544, "centroid_y": 46.607400136831515, "DA_Chn_L": 28739.3311627, "DA_Slope": 12.7663064681, "DA_Chn_Slp": 0.0100907010799, "HRU_S_mean": 25.472536478930607, "HRU_A_mean": 187.51723731963708, "HRU_E_mean": 1422.3655339626837, "HRU_A_G": 30539699.999997631 }, "geometry": { "type": "Polygon", "coordinates": [ [ [ -74.045435442680144, 46.589112891507405 ], [ -74.040201342587494, 46.6293928857976 ], [ -74.01826307450186, 46.638062021470752 ], [ -74.016823105473634, 46.614560375981128 ], [ -73.955576286775965, 46.637098571665689 ], [ -73.944270021567888, 46.629336327833833 ], [ -73.954945130443335, 46.601347955404989 ], [ -73.99861539272581, 46.59924597073956 ], [ -74.014449793176283, 46.566553008633072 ], [ -74.045435442680144, 46.589112891507405 ] ], [ [ -74.035400204817023, 46.609338982753549 ], [ -74.035158834729529, 46.608999664839359 ], [ -74.03503333522896, 46.609252494344815 ], [ -74.035400204817023, 46.609338982753549 ] ] ] } },
{ "type": "Feature", "properties": { "SubId": 23000209, "HRU_IsLake": -1, "Landuse_ID": 1, "Veg_ID": 1, "Soil_ID": 1, "O_ID_1": 1, "O_ID_2": 1, "HRU_CenX": -74.361740780686816, "HRU_CenY": 46.724594335466143, "HRU_Area": 40625099.999999896, "HRU_ID": 5, "LAND_USE_C": "Landuse_Land_HRU", "SOIL_PROF": "Soil_Land_HRU", "VEG_C": "Veg_Land_HRU", "DowSubId": 23000245, "RivSlope": -1.2345, "RivLength": -1.2345, "BasSlope": 29.274682016886114, "BasAspect": 163.84608260156881, "BasArea": 40625099.999999896, "BkfWidth": 11.0789368057, "BkfDepth": 0.34967381951600002, "Lake_Cat": 0.0, "HyLakeId": 0, "LakeVol": 0.0, "LakeDepth": 0.0, "LakeArea": 0.0, "Laketype": 0.0, "Has_POI": 0, "MeanElev": 1496.9596461235253, "FloodP_n": -1.2345, "Q_Mean": 2.3067771571792299, "Ch_n": -1.2345, "DrainArea": 40625099.999999896, "Strahler": 1.0, "Seg_ID": 6.0, "Seg_order": 1.0, "Max_DEM": -1.2345, "Min_DEM": -1.2345, "Obs_NM": "<NA>", "SRC_obs": "<NA>", "centroid_x": -74.361749513733471, "centroid_y": 46.724612458406988, "DA_Chn_L": 13909.188309200001, "DA_Slope": 19.268844101700001, "DA_Chn_Slp": 0.015888777625799998, "HRU_S_mean": 29.274682016886114, "HRU_A_mean": 163.84608260156881, "HRU_E_mean": 1496.9596461235253, "HRU_A_G": 41428799.999998763 }, "geometry": { "type": "Polygon", "coordinates": [ [ [ -74.37332806413346, 46.776820455056473 ], [ -74.320095585881589, 46.738832269320277 ], [ -74.328646864135038, 46.698779785813009 ], [ -74.358024198534153, 46.695712902065488 ], [ -74.354357417568551, 46.661303960434807 ], [ -74.391164943265892, 46.705068940447788 ], [ -74.396799510610705, 46.7498006266338 ], [ -74.37332806413346, 46.776820455056473 ] ], [ [ -74.349063696853108, 46.751746412618409 ], [ -74.34918419921776, 46.752338515823162 ], [ -74.349432379694505, 46.751831702972609 ], [ -74.349063696853108, 46.751746412618409 ] ] ] } },
{ "type": "Feature", "properties": { "SubId": 23000210, "HRU_IsLake": -1, "Landuse_ID": 1, "Veg_ID": 1, "Soil_ID": 1, "O_ID_1": 1, "O_ID_2": 1, "HRU_CenX": -74.275203943749261, "HRU_CenY": 46.746865719805584, "HRU_Area": 40250700.0, "HRU_ID": 6, "LAND_USE_C": "Landuse_Land_HRU", "SOIL_PROF": "Soil_Land_HRU", "VEG_C": "Veg_Land_HRU", "DowSubId": 23000245, "RivSlope": 0.0096269234132129993, "RivLength": 12672.792206131, "BasSlope": 25.665130776071916, "BasAspect": 185.40450939438188, "BasArea": 40250700.0, "BkfWidth": 19.371849880100001, "BkfDepth": 0.488952783961, "Lake_Cat": 0.0, "HyLakeId": 0, "LakeVol": 0.0, "LakeDepth": 0.0, "LakeArea": 0.0, "Laketype": 0.0, "Has_POI": 0, "MeanElev": 1487.2658012684735, "FloodP_n": 0.09616722132734, "Q_Mean": 6.4731146808828077, "Ch_n": 0.070897390033475005, "DrainArea": 128713500.0, "Strahler": 2.0, "Seg_ID": 102.0, "Seg_order": 1.0, "Max_DEM": 1169.0, "Min_DEM": 1123.0, "Obs_NM": "<NA>", "SRC_obs": "<NA>", "centroid_x": -74.27522885272316, "centroid_y": 46.746846954858697, "DA_Chn_L": 28388.376618400001, "DA_Slope": 8.33051543835, "DA_Chn_Slp": 0.0095109348318599997, "HRU_S_mean": 25.665130776071916, "HRU_A_mean": 185.40450939438188, "HRU_E_mean": 1487.2658012684735, "HRU_A_G": 41044499.999995984 }, "geometry": { "type": "Polygon", "coordinates": [ [ [ -74.319266925740862, 46.7572623216709 ], [ -74.273455008317143, 46.785302437202922 ], [ -74.230866931968805, 46.784157730779192 ], [ -74.235790170541932, 46.748321470632241 ], [ -74.208786236053115, 46.740620831635447 ], [ -74.223646249333257, 46.726299211594551 ], [ -74.244949567428534, 46.739726571955522 ], [ -74.280657809981918, 46.732222341393715 ], [ -74.328282655743536, 46.697849114518711 ], [ -74.319266925740862, 46.7572623216709 ] ], [ [ -74.279804047469597, 46.773227816323519 ], [ -74.28029732679947, 46.773060054171701 ], [ -74.279928600017968, 46.772974480805907 ], [ -74.279804047469597, 46.773227816323519 ] ] ] } },
{ "type": "Feature", "properties": { "SubId": 23000227, "HRU_IsLake": -1, "Landuse_ID": 1, "Veg_ID": 1, "Soil_ID": 1, "O_ID_1": 1, "O_ID_2": 1, "HRU_CenX": -74.06455153422408, "HRU_CenY": 46.678676460780544, "HRU_Area": 48069000.000001, "HRU_ID": 7, "LAND_USE_C": "Landuse_Land_HRU", "SOIL_PROF": "Soil_Land_HRU", "VEG_C": "Veg_Land_HRU", "DowSubId": 23000229, "RivSlope": -1.2345, "RivLength": -1.2345, "BasSlope": 28.360299988894749, "BasAspect": 172.46616420498961, "BasArea": 48069000.000001, "BkfWidth": 12.0199837967, "BkfDepth": 0.36720331703800002, "Lake_Cat": 0.0, "HyLakeId": 0, "LakeVol": 0.0, "LakeDepth": 0.0, "LakeArea": 0.0, "Laketype": 0.0, "Has_POI": 0, "MeanElev": 1439.041337234753, "FloodP_n": -1.2345, "Q_Mean": 2.231887594012091, "Ch_n": -1.2345, "DrainArea": 48069000.000001, "Strahler": 1.0, "Seg_ID": 4.0, "Seg_order": 1.0, "Max_DEM": -1.2345, "Min_DEM": -1.2345, "Obs_NM": "<NA>", "SRC_obs": "<NA>", "centroid_x": -74.064562359065491, "centroid_y": 46.678694737449291, "DA_Chn_L": 22968.670990899998, "DA_Slope": 20.402330727300001, "DA_Chn_Slp": 0.017066725373699999, "HRU_S_mean": 28.360299988894749, "HRU_A_mean": 172.46616420498961, "HRU_E_mean": 1439.041337234753, "HRU_A_G": 48914099.999994442 }, "geometry": { "type": "Polygon", "coordinates": [ [ [ -74.058815525543537, 46.734052630536816 ], [ -74.033652230885721, 46.719378045217951 ], [ -74.023530213709378, 46.670377657708457 ], [ -74.056507828684559, 46.652720172323249 ], [ -74.050479245985841, 46.631813652735012 ], [ -74.094945456881746, 46.614036070698617 ], [ -74.088974999853292, 46.634373813938559 ], [ -74.103889555434321, 46.652277164852059 ], [ -74.068358737867442, 46.680926999858045 ], [ -74.119028209470059, 46.699596574473155 ], [ -74.058815525543537, 46.734052630536816 ] ] ] } },
{ "type": "Feature", "properties": { "SubId": 23000228, "HRU_IsLake": -1, "Landuse_ID": 1, "Veg_ID": 1, "Soil_ID": 1, "O_ID_1": 1, "O_ID_2": 1, "HRU_CenX": -74.09479904666982, "HRU_CenY": 46.609790693161088, "HRU_Area": 351900.0, "HRU_ID": 8, "LAND_USE_C": "Landuse_Land_HRU", "SOIL_PROF": "Soil_Land_HRU", "VEG_C": "Veg_Land_HRU", "DowSubId": 23000229, "RivSlope": 0.039845310503799997, "RivLength": 1254.8528137400001, "BasSlope": 39.656644601700002, "BasAspect": 211.06680753099999, "BasArea": 351900.0, "BkfWidth": 47.725293293900002, "BkfDepth": 0.83987263256300004, "Lake_Cat": 0.0, "HyLakeId": 0, "LakeVol": 0.0, "LakeDepth": 0.0, "LakeArea": 0.0, "Laketype": 0.0, "Has_POI": 0, "MeanElev": 1321.3975127599999, "FloodP_n": 0.15, "Q_Mean": 43.937184027500003, "Ch_n": 0.15, "DrainArea": 827491500.0, "Strahler": 3.0, "Seg_ID": 115.0, "Seg_order": 1.0, "Max_DEM": 1090.0, "Min_DEM": 1040.0, "Obs_NM": "<NA>", "SRC_obs": "<NA>", "centroid_x": -74.094898623948694, "centroid_y": 46.609844354751793, "DA_Chn_L": 76945.647173499994, "DA_Slope": 3.8315473729099998, "DA_Chn_Slp": 0.0142958054212, "HRU_S_mean": 39.656644601700002, "HRU_A_mean": 211.06680753099999, "HRU_E_mean": 1321.3975127599999, "HRU_A_G": 368099.9999997436 }, "geometry": { "type": "Polygon", "coordinates": [ [ [ -74.094453259778945, 46.614202732791838 ], [ -74.091818684550475, 46.607936901619219 ], [ -74.099675653853438, 46.606960248607919 ], [ -74.094453259778945, 46.614202732791838 ] ] ] } },
{ "type": "Feature", "properties": { "SubId": 23000229, "HRU_IsLake": -1, "Landuse_ID": 1, "Veg_ID": 1, "Soil_ID": 1, "O_ID_1": 1, "O_ID_2": 1, "HRU_CenX": -74.077474944943376, "HRU_CenY": 46.611385158378894, "HRU_Area": 5041800.0, "HRU_ID": 9, "LAND_USE_C": "Landuse_Land_HRU", "SOIL_PROF": "Soil_Land_HRU", "VEG_C": "Veg_Land_HRU", "DowSubId": 23000197, "RivSlope": 0.0153199630162, "RivLength": 3394.2640687100002, "BasSlope": 24.700627362799999, "BasAspect": 180.53630006200001, "BasArea": 5041800.0, "BkfWidth": 49.185730493500003, "BkfDepth": 0.85520009763100002, "Lake_Cat": 0.0, "HyLakeId": 0, "LakeVol": 0.0, "LakeDepth": 0.0, "LakeArea": 0.0, "Laketype": 0.0, "Has_POI": 0, "MeanElev": 1369.37704181, "FloodP_n": 0.1, "Q_Mean": 46.66736273499999, "Ch_n": 0.094242905635299995, "DrainArea": 880602300.000001, "Strahler": 3.0, "Seg_ID": 116.0, "Seg_order": 1.0, "Max_DEM": 1092.0, "Min_DEM": 1040.0, "Obs_NM": "<NA>", "SRC_obs": "<NA>", "centroid_x": -74.077542784167846, "centroid_y": 46.611347322458592, "DA_Chn_L": 80339.911242200003, "DA_Slope": 3.7418804220399999, "DA_Chn_Slp": 0.014339074840699999, "HRU_S_mean": 24.700627362799999, "HRU_A_mean": 180.53630006200001, "HRU_E_mean": 1369.37704181, "HRU_A_G": 5162399.9999996535 }, "geometry": { "type": "Polygon", "coordinates": [ [ [ -74.065505230358383, 46.626313583092866 ], [ -74.063520891830507, 46.605515226505084 ], [ -74.090854669103194, 46.594158851159342 ], [ -74.087285790138452, 46.619576602478944 ], [ -74.065505230358383, 46.626313583092866 ] ] ] } },
{ "type": "Feature", "properties": { "SubId": 23000230, "HRU_IsLake": -1, "Landuse_ID": 1, "Veg_ID": 1, "Soil_ID": 1, "O_ID_1": 1, "O_ID_2": 1, "HRU_CenX": -74.018368390661124, "HRU_CenY": 46.534496101956563, "HRU_Area": 67913999.9999993, "HRU_ID": 10, "LAND_USE_C": "Landuse_Land_HRU", "SOIL_PROF": "Soil_Land_HRU", "VEG_C": "Veg_Land_HRU", "DowSubId": 23000197, "RivSlope": -1.2345, "RivLength": -1.2345, "BasSlope": 28.370035809579015, "BasAspect": 176.32173509207391, "BasArea": 67913999.9999993, "BkfWidth": 14.211202863800001, "BkfDepth": 0.40601564606399998, "Lake_Cat": 0.0, "HyLakeId": 0, "LakeVol": 0.0, "LakeDepth": 0.0, "LakeArea": 0.0, "Laketype": 0.0, "Has_POI": 0, "MeanElev": 1479.9789581574653, "FloodP_n": -1.2345, "Q_Mean": 2.9664592787287312, "Ch_n": -1.2345, "DrainArea": 67913999.9999993, "Strahler": 1.0, "Seg_ID": 10.0, "Seg_order": 1.0, "Max_DEM": -1.2345, "Min_DEM": -1.2345, "Obs_NM": "<NA>", "SRC_obs": "<NA>", "centroid_x": -74.018412724794985, "centroid_y": 46.534550748326438, "DA_Chn_L": 25512.6406871, "DA_Slope": 25.508391291900001, "DA_Chn_Slp": 0.0067417560616099999, "HRU_S_mean": 28.370035809579015, "HRU_A_mean": 176.32173509207391, "HRU_E_mean": 1479.9789581574653, "HRU_A_G": 69373799.999994338 }, "geometry": { "type": "Polygon", "coordinates": [ [ [ -74.065489737801016, 46.604849247425449 ], [ -74.018034977801904, 46.574177196457335 ], [ -74.005804350527512, 46.541919107979737 ], [ -73.966482027088588, 46.524705327979021 ], [ -73.955532140958269, 46.510530497864451 ], [ -73.965439294954436, 46.501300908931761 ], [ -73.927862333509594, 46.476567315578606 ], [ -73.928300266693199, 46.462550823521696 ], [ -74.064024926071056, 46.524325966976185 ], [ -74.05048402868313, 46.542587027266023 ], [ -74.091861447498346, 46.567295161932805 ], [ -74.095608761683181, 46.584549134932288 ], [ -74.065489737801016, 46.604849247425449 ] ] ] } },
{ "type": "Feature", "properties": { "SubId": 23000235, "HRU_IsLake": -1, "Landuse_ID": 1, "Veg_ID": 1, "Soil_ID": 1, "O_ID_1": 1, "O_ID_2": 1, "HRU_CenX": -74.111954009219232, "HRU_CenY": 46.625717236465334, "HRU_Area": 9913500.0, "HRU_ID": 11, "LAND_USE_C": "Landuse_Land_HRU", "SOIL_PROF": "Soil_Land_HRU", "VEG_C": "Veg_Land_HRU", "DowSubId": 23000228, "RivSlope": 0.015521535829900001, "RivLength": 6056.10173055, "BasSlope": 29.943997106999998, "BasAspect": 167.35630564600001, "BasArea": 9913500.0, "BkfWidth": 13.563308725800001, "BkfDepth": 0.39480591859899999, "Lake_Cat": 0.0, "HyLakeId": 0, "LakeVol": 0.0, "LakeDepth": 0.0, "LakeArea": 0.0, "Laketype": 0.0, "Has_POI": 0, "MeanElev": 1418.5962224100001, "FloodP_n": 0.098969072164900002, "Q_Mean": 3.54867560942, "Ch_n": 0.090720570031300005, "DrainArea": 61678800.000001, "Strahler": 1.0, "Seg_ID": 8.0, "Seg_order": 2.0, "Max_DEM": 1134.0, "Min_DEM": 1040.0, "Obs_NM": "<NA>", "SRC_obs": "<NA>", "centroid_x": -74.111956366713329, "centroid_y": 46.625749235980621, "DA_Chn_L": 20197.127701599999, "DA_Slope": 20.109343288600002, "DA_Chn_Slp": 0.0075258225944699999, "HRU_S_mean": 29.943997106999998, "HRU_A_mean": 167.35630564600001, "HRU_E_mean": 1418.5962224100001, "HRU_A_G": 10119599.999999544 }, "geometry": { "type": "Polygon", "coordinates": [ [ [ -74.103889555434321, 46.652277164852059 ], [ -74.093952561895236, 46.615214395767033 ], [ -74.122361641592462, 46.606641884322158 ], [ -74.135382821621661, 46.630867702111118 ], [ -74.103889555434321, 46.652277164852059 ] ] ] } },
{ "type": "Feature", "properties": { "SubId": 23000236, "HRU_IsLake": -1, "Landuse_ID": 1, "Veg_ID": 1, "Soil_ID": 1, "O_ID_1": 1, "O_ID_2": 1, "HRU_CenX": -74.153726099335671, "HRU_CenY": 46.604684939136462, "HRU_Area": 44402400.0, "HRU_ID": 12, "LAND_USE_C": "Landuse_Land_HRU", "SOIL_PROF": "Soil_Land_HRU", "VEG_C": "Veg_Land_HRU", "DowSubId": 23000228, "RivSlope": 0.018496642091734999, "RivLength": 12272.49783362, "BasSlope": 25.20582358986362, "BasAspect": 178.79259781875683, "BasArea": 44402400.0, "BkfWidth": 45.956973468699999, "BkfDepth": 0.82106042254300005, "Lake_Cat": 0.0, "HyLakeId": 0, "LakeVol": 0.0, "LakeDepth": 0.0, "LakeArea": 0.0, "Laketype": 0.0, "Has_POI": 0, "MeanElev": 1413.7524674873798, "FloodP_n": 0.106581301646254, "Q_Mean": 39.900228265435487, "Ch_n": 0.101036384410678, "DrainArea": 765460799.99999905, "Strahler": 3.0, "Seg_ID": 114.0, "Seg_order": 1.0, "Max_DEM": 1119.0, "Min_DEM": 1040.0, "Obs_NM": "<NA>", "SRC_obs": "<NA>", "centroid_x": -74.153655126537245, "centroid_y": 46.604668463675928, "DA_Chn_L": 75690.794359799998, "DA_Slope": 4.1238136684400004, "DA_Chn_Slp": 0.01387222857, "HRU_S_mean": 25.20582358986362, "HRU_A_mean": 178.79259781875683, "HRU_E_mean": 1413.7524674873798, "HRU_A_G": 45245699.999994799 }, "geometry": { "type": "Polygon", "coordinates": [ [ [ -74.157921060196543, 46.649132690366848 ], [ -74.122361641592462, 46.606641884322158 ], [ -74.091118949459627, 46.604384485220102 ], [ -74.095659511931018, 46.579479817590588 ], [ -74.128172279300756, 46.588247121548044 ], [ -74.13455587505581, 46.57365792433702 ], [ -74.17613406564827, 46.568168230505968 ], [ -74.189518784136922, 46.610804556564382 ], [ -74.211913558518305, 46.61688531250109 ], [ -74.198504438502056, 46.638302512315548 ], [ -74.190369621855908, 46.627370742420027 ], [ -74.157921060196543, 46.649132690366848 ] ] ] } },
{ "type": "Feature", "properties": { "SubId": 23000239, "HRU_IsLake": -1, "Landuse_ID": 1, "Veg_ID": 1, "Soil_ID": 1, "O_ID_1": 1, "O_ID_2": 1, "HRU_CenX": -74.239665264451773, "HRU_CenY": 46.664819651098234, "HRU_Area": 30309300.0, "HRU_ID": 13, "LAND_USE_C": "Landuse_Land_HRU", "SOIL_PROF": "Soil_Land_HRU", "VEG_C": "Veg_Land_HRU", "DowSubId": 23000244, "RivSlope": -1.2345, "RivLength": -1.2345, "BasSlope": 27.791048027577439, "BasAspect": 162.69177057853827, "BasArea": 30309300.0, "BkfWidth": 9.6129206937799996, "BkfDepth": 0.32112748790899998, "Lake_Cat": 0.0, "HyLakeId": 0, "LakeVol": 0.0, "LakeDepth": 0.0, "LakeArea": 0.0, "Laketype": 0.0, "Has_POI": 0, "MeanElev": 1448.2943480303145, "FloodP_n": -1.2345, "Q_Mean": 1.7825664402900001, "Ch_n": -1.2345, "DrainArea": 30309300.0, "Strahler": 1.0, "Seg_ID": 11.0, "Seg_order": 1.0, "Max_DEM": -1.2345, "Min_DEM": -1.2345, "Obs_NM": "<NA>", "SRC_obs": "<NA>", "centroid_x": -74.239678576503479, "centroid_y": 46.664843349651683, "DA_Chn_L": 12674.041123000001, "DA_Slope": 19.0644281977, "DA_Chn_Slp": 0.0056020017065799999, "HRU_S_mean": 27.791048027577439, "HRU_A_mean": 162.69177057853827, "HRU_E_mean": 1448.2943480303145, "HRU_A_G": 30879899.999997709 }, "geometry": { "type": "Polygon", "coordinates": [ [ [ -74.240354268510856, 46.709868561299835 ], [ -74.212456254778232, 46.693206809560074 ], [ -74.207121053452695, 46.667407359589596 ], [ -74.236168708165749, 46.620854158247305 ], [ -74.284666809913176, 46.65471824134336 ], [ -74.262272291280937, 46.663613925331525 ], [ -74.269323041131187, 46.675129519820494 ], [ -74.240354268510856, 46.709868561299835 ] ] ] } },
{ "type": "Feature", "properties": { "SubId": 23000240, "HRU_IsLake": -1, "Landuse_ID": 1, "Veg_ID": 1, "Soil_ID": 1, "O_ID_1": 1, "O_ID_2": 1, "HRU_CenX": -74.198605378123389, "HRU_CenY": 46.690753816847689, "HRU_Area": 46062899.999999702, "HRU_ID": 14, "LAND_USE_C": "Landuse_Land_HRU", "SOIL_PROF": "Soil_Land_HRU", "VEG_C": "Veg_Land_HRU", "DowSubId": 23000244, "RivSlope": -1.2345, "RivLength": -1.2345, "BasSlope": 30.065385686342129, "BasAspect": 173.65202400244911, "BasArea": 46062899.999999702, "BkfWidth": 11.7742475654, "BkfDepth": 0.36268046521300001, "Lake_Cat": 0.0, "HyLakeId": 0, "LakeVol": 0.0, "LakeDepth": 0.0, "LakeArea": 0.0, "Laketype": 0.0, "Has_POI": 0, "MeanElev": 1456.7833022336533, "FloodP_n": -1.2345, "Q_Mean": 2.5385756373581421, "Ch_n": -1.2345, "DrainArea": 46062899.999999702, "Strahler": 1.0, "Seg_ID": 9.0, "Seg_order": 1.0, "Max_DEM": -1.2345, "Min_DEM": -1.2345, "Obs_NM": "<NA>", "SRC_obs": "<NA>", "centroid_x": -74.198606721751759, "centroid_y": 46.690750253876722, "DA_Chn_L": 20004.7012947, "DA_Slope": 21.579168262700001, "DA_Chn_Slp": 0.0116472621394, "HRU_S_mean": 30.065385686342129, "HRU_A_mean": 173.65202400244911, "HRU_E_mean": 1456.7833022336533, "HRU_A_G": 46988999.999993458 }, "geometry": { "type": "Polygon", "coordinates": [ [ [ -74.20959744896679, 46.747303098162185 ], [ -74.185683337125624, 46.738338317867296 ], [ -74.193062359765591, 46.722555974388634 ], [ -74.160643533407523, 46.718372556371158 ], [ -74.16329674141889, 46.666480894299141 ], [ -74.190369621855908, 46.627370742420027 ], [ -74.209179458906931, 46.638256246037813 ], [ -74.229177324980526, 46.620915790990047 ], [ -74.210641696890107, 46.689396581473403 ], [ -74.249892776489716, 46.717168737515806 ], [ -74.20959744896679, 46.747303098162185 ] ] ] } },
{ "type": "Feature", "properties": { "SubId": 23000241, "HRU_IsLake": -1, "Landuse_ID": 1, "Veg_ID": 1, "Soil_ID": 1, "O_ID_1": 1, "O_ID_2": 1, "HRU_CenX": -74.433505063593586, "HRU_CenY": 46.729443547532512, "HRU_Area": 70161300.0, "HRU_ID": 15, "LAND_USE_C": "Landuse_Land_HRU", "SOIL_PROF": "Soil_Land_HRU", "VEG_C": "Veg_Land_HRU", "DowSubId": 23000246, "RivSlope": -1.2345, "RivLength": -1.2345, "BasSlope": 29.044531001084703, "BasAspect": 172.01527900239071, "BasArea": 70161300.0, "BkfWidth": 14.437149296799999, "BkfDepth": 0.40987660930999997, "Lake_Cat": 0.0, "HyLakeId": 0, "LakeVol": 0.0, "LakeDepth": 0.0, "LakeArea": 0.0, "Laketype": 0.0, "Has_POI": 0, "MeanElev": 1489.8135765766544, "FloodP_n": -1.2345, "Q_Mean": 3.4545159697379999, "Ch_n": -1.2345, "DrainArea": 70161300.0, "Strahler": 1.0, "Seg_ID": 5.0, "Seg_order": 1.0, "Max_DEM": -1.2345, "Min_DEM": -1.2345, "Obs_NM": "<NA>", "SRC_obs": "<NA>", "centroid_x": -74.433472923047802, "centroid_y": 46.729428965914714, "DA_Chn_L": 22137.716446599999, "DA_Slope": 10.253536152700001, "DA_Chn_Slp": 0.012377067014099999, "HRU_S_mean": 29.044531001084703, "HRU_A_mean": 172.01527900239071, "HRU_E_mean": 1489.8135765766544, "HRU_A_G": 71492399.99999328 }, "geometry": { "type": "Polygon", "coordinates": [ [ [ -74.415116672385466, 46.798870537535009 ], [ -74.379039554358044, 46.693806457301889 ], [ -74.399211210900191, 46.686061516644244 ], [ -74.401132313755426, 46.660284674128768 ], [ -74.442943487841418, 46.68374850153409 ], [ -74.440815436272914, 46.702427585022043 ], [ -74.497448351872094, 46.717430672231956 ], [ -74.48600298693087, 46.730022001562737 ], [ -74.501122262016423, 46.735185931481176 ], [ -74.499749151768626, 46.760804032945167 ], [ -74.451516652436879, 46.761280586047498 ], [ -74.415116672385466, 46.798870537535009 ] ] ] } },
{ "type": "Feature", "properties": { "SubId": 23000242, "HRU_IsLake": -1, "Landuse_ID": 1, "Veg_ID": 1, "Soil_ID": 1, "O_ID_1": 1, "O_ID_2": 1, "HRU_CenX": -74.425293252603026, "HRU_CenY": 46.647073064168573, "HRU_Area": 20439900.0, "HRU_ID": 16, "LAND_USE_C": "Landuse_Land_HRU", "SOIL_PROF": "Soil_Land_HRU", "VEG_C": "Veg_Land_HRU", "DowSubId": 23000246, "RivSlope": 0.010272344991449, "RivLength": 8566.6904755809992, "BasSlope": 26.096923737572148, "BasAspect": 164.65330773909787, "BasArea": 20439900.0, "BkfWidth": 14.644112875499999, "BkfDepth": 0.41339203718899997, "Lake_Cat": 0.0, "HyLakeId": 0, "LakeVol": 0.0, "LakeDepth": 0.0, "LakeArea": 0.0, "Laketype": 0.0, "Has_POI": 0, "MeanElev": 1448.1048956387515, "FloodP_n": 0.096463527319365999, "Q_Mean": 3.735882963663713, "Ch_n": 0.065677980067114006, "DrainArea": 72252900.0, "Strahler": 1.0, "Seg_ID": 12.0, "Seg_order": 2.0, "Max_DEM": 1173.0, "Min_DEM": 1132.0, "Obs_NM": "<NA>", "SRC_obs": "<NA>", "centroid_x": -74.425297003667481, "centroid_y": 46.647032774762629, "DA_Chn_L": 19181.0259711, "DA_Slope": 12.272484862200001, "DA_Chn_Slp": 0.0089671949904900003, "HRU_S_mean": 26.096923737572148, "HRU_A_mean": 164.65330773909787, "HRU_E_mean": 1448.1048956387515, "HRU_A_G": 20825099.999996949 }, "geometry": { "type": "Polygon", "coordinates": [ [ [ -74.437295885493626, 46.682728400038805 ], [ -74.400887832484869, 46.659946245379594 ], [ -74.39350787989703, 46.626383714788759 ], [ -74.44209071550948, 46.62238894004151 ], [ -74.454317083300452, 46.643527626462351 ], [ -74.437295885493626, 46.682728400038805 ] ] ] } },
{ "type": "Feature", "properties": { "SubId": 23000243, "HRU_IsLake": -1, "Landuse_ID": 1, "Veg_ID": 1, "Soil_ID": 1, "O_ID_1": 1, "O_ID_2": 1, "HRU_CenX": -74.284336823130232, "HRU_CenY": 46.621354164788634, "HRU_Area": 29080800.0, "HRU_ID": 17, "LAND_USE_C": "Landuse_Land_HRU", "SOIL_PROF": "Soil_Land_HRU", "VEG_C": "Veg_Land_HRU", "DowSubId": 23000259, "RivSlope": 0.023015746005703001, "RivLength": 13751.909088586999, "BasSlope": 28.227925101874639, "BasAspect": 178.20847170175304, "BasArea": 29080800.0, "BkfWidth": 35.672609855300003, "BkfDepth": 0.70528589216100002, "Lake_Cat": 0.0, "HyLakeId": 0, "LakeVol": 0.0, "LakeDepth": 0.0, "LakeArea": 0.0, "Laketype": 0.0, "Has_POI": 0, "MeanElev": 1425.3198591482012, "FloodP_n": 0.1, "Q_Mean": 23.960012910113011, "Ch_n": 0.083691026910218999, "DrainArea": 453806099.99999988, "Strahler": 3.0, "Seg_ID": 105.0, "Seg_order": 1.0, "Max_DEM": 1141.0, "Min_DEM": 1040.0, "Obs_NM": "<NA>", "SRC_obs": "<NA>", "centroid_x": -74.284291205027571, "centroid_y": 46.621352144399516, "DA_Chn_L": 53844.915575, "DA_Slope": 4.9235268139199997, "DA_Chn_Slp": 0.0123131403016, "HRU_S_mean": 28.227925101874639, "HRU_A_mean": 178.20847170175304, "HRU_E_mean": 1425.3198591482012, "HRU_A_G": 29680199.999998409 }, "geometry": { "type": "Polygon", "coordinates": [ [ [ -74.269963467958618, 46.650451444748903 ], [ -74.232518474332963, 46.616617045862029 ], [ -74.280988923118969, 46.590399290733579 ], [ -74.323712738978116, 46.60089988595746 ], [ -74.323306225842614, 46.634362479644821 ], [ -74.269963467958618, 46.650451444748903 ] ] ] } },
{ "type": "Feature", "properties": { "SubId": 23000244, "HRU_IsLake": -1, "Landuse_ID": 1, "Veg_ID": 1, "Soil_ID": 1, "O_ID_1": 1, "O_ID_2": 1, "HRU_CenX": -74.231568573628977, "HRU_CenY": 46.621103724150828, "HRU_Area": 62100.0, "HRU_ID": 18, "LAND_USE_C": "Landuse_Land_HRU", "SOIL_PROF": "Soil_Land_HRU", "VEG_C": "Veg_Land_HRU", "DowSubId": 23000259, "RivSlope": 0.0055555555555600001, "RivLength": 540.0, "BasSlope": 54.278584335200001, "BasAspect": 160.65319169099999, "BasArea": 62100.0, "BkfWidth": 15.048800587300001, "BkfDepth": 0.42020904728399999, "Lake_Cat": 0.0, "HyLakeId": 0, "LakeVol": 0.0, "LakeDepth": 0.0, "LakeArea": 0.0, "Laketype": 0.0, "Has_POI": 0, "MeanElev": 1303.32237708, "FloodP_n": 0.1, "Q_Mean": 4.3685647977600004, "Ch_n": 0.054523245646299998, "DrainArea": 76434299.999999702, "Strahler": 2.0, "Seg_ID": 59.0, "Seg_order": 1.0, "Max_DEM": 1128.0, "Min_DEM": 1125.0, "Obs_NM": "<NA>", "SRC_obs": "<NA>", "centroid_x": -74.231430155851967, "centroid_y": 46.621152471417098, "DA_Chn_L": 20544.7012947, "DA_Slope": 13.0487198791, "DA_Chn_Slp": 0.011487146812899999, "HRU_S_mean": 54.278584335200001, "HRU_A_mean": 160.65319169099999, "HRU_E_mean": 1303.32237708, "HRU_A_G": 62099.999999997584 }, "geometry": { "type": "Polygon", "coordinates": [ [ [ -74.233709993623279, 46.621691231059025 ], [ -74.229420261859246, 46.621254617018074 ], [ -74.231766319097801, 46.618980703838858 ], [ -74.233709993623279, 46.621691231059025 ] ] ] } },
{ "type": "Feature", "properties": { "SubId": 23000245, "HRU_IsLake": -1, "Landuse_ID": 1, "Veg_ID": 1, "Soil_ID": 1, "O_ID_1": 1, "O_ID_2": 1, "HRU_CenX": -74.327928975592414, "HRU_CenY": 46.674454244027309, "HRU_Area": 23443200.0, "HRU_ID": 19, "LAND_USE_C": "Landuse_Land_HRU", "SOIL_PROF": "Soil_Land_HRU", "VEG_C": "Veg_Land_HRU", "DowSubId": 23000253, "RivSlope": 0.0068982283161600003, "RivLength": 10292.49783362, "BasSlope": 31.19785494377567, "BasAspect": 170.03608635262046, "BasArea": 23443200.0, "BkfWidth": 23.560260128500001, "BkfDepth": 0.54988555968899999, "Lake_Cat": 0.0, "HyLakeId": 0, "LakeVol": 0.0, "LakeDepth": 0.0, "LakeArea": 0.0, "Laketype": 0.0, "Has_POI": 0, "MeanElev": 1425.2156039732461, "FloodP_n": 0.095146522005141995, "Q_Mean": 10.435465553442999, "Ch_n": 0.059872973121796, "DrainArea": 192781799.99999988, "Strahler": 2.0, "Seg_ID": 103.0, "Seg_order": 1.0, "Max_DEM": 1152.0, "Min_DEM": 1116.0, "Obs_NM": "<NA>", "SRC_obs": "<NA>", "centroid_x": -74.327916365467445, "centroid_y": 46.674495462784897, "DA_Chn_L": 38680.874451999996, "DA_Slope": 8.2448939943799999, "DA_Chn_Slp": 0.0088157262427699997, "HRU_S_mean": 31.19785494377567, "HRU_A_mean": 170.03608635262046, "HRU_E_mean": 1425.2156039732461, "HRU_A_G": 23844599.999996893 }, "geometry": { "type": "Polygon", "coordinates": [ [ [ -74.305236114542424, 46.711404916432663 ], [ -74.295505792042391, 46.692782754178872 ], [ -74.309728546935318, 46.650387821622203 ], [ -74.346590828603311, 46.640328603494609 ], [ -74.357900317856377, 46.695966260116222 ], [ -74.316869530467969, 46.695202435267596 ], [ -74.305236114542424, 46.711404916432663 ] ] ] } },
{ "type": "Feature", "properties": { "SubId": 23000246, "HRU_IsLake": -1, "Landuse_ID": 1, "Veg_ID": 1, "Soil_ID": 1, "O_ID_1": 1, "O_ID_2": 1, "HRU_CenX": -74.368519728612895, "HRU_CenY": 46.625359362534986, "HRU_Area": 55619100.0, "HRU_ID": 20, "LAND_USE_C": "Landuse_Land_HRU", "SOIL_PROF": "Soil_Land_HRU", "VEG_C": "Veg_Land_HRU", "DowSubId": 23000253, "RivSlope": 0.0073443358764560002, "RivLength": 14024.924240490001, "BasSlope": 28.419427442476088, "BasAspect": 168.32193000567545, "BasArea": 55619100.0, "BkfWidth": 23.869083808500001, "BkfDepth": 0.55419897206699997, "Lake_Cat": 0.0, "HyLakeId": 0, "LakeVol": 0.0, "LakeDepth": 0.0, "LakeArea": 0.0, "Laketype": 0.0, "Has_POI": 0, "MeanElev": 1435.6017968032293, "FloodP_n": 0.10344180968339101, "Q_Mean": 9.3017176427063539, "Ch_n": 0.060692053276793001, "DrainArea": 198033300.0, "Strahler": 2.0, "Seg_ID": 77.0, "Seg_order": 1.0, "Max_DEM": 1157.0, "Min_DEM": 1116.0, "Obs_NM": "<NA>", "SRC_obs": "<NA>", "centroid_x": -74.368477530391345, "centroid_y": 46.625347003677774, "DA_Chn_L": 36162.6406871, "DA_Slope": 6.1102314071999997, "DA_Chn_Slp": 0.0104251236314, "HRU_S_mean": 28.419427442476088, "HRU_A_mean": 168.32193000567545, "HRU_E_mean": 1435.6017968032293, "HRU_A_G": 56723399.999993272 }, "geometry": { "type": "Polygon", "coordinates": [ [ [ -74.385820802396324, 46.686632616588135 ], [ -74.313589591165936, 46.614903254820781 ], [ -74.316044748392343, 46.589813072590879 ], [ -74.349578064500363, 46.572227900032466 ], [ -74.381031036164146, 46.581494968973033 ], [ -74.405695462786454, 46.611444335880918 ], [ -74.431692187143426, 46.610969999068601 ], [ -74.392152274747488, 46.628325294530526 ], [ -74.404270638163069, 46.678207820933132 ], [ -74.385820802396324, 46.686632616588135 ] ] ] } },
{ "type": "Feature", "properties": { "SubId": 23000251, "HRU_IsLake": -1, "Landuse_ID": 1, "Veg_ID": 1, "Soil_ID": 1, "O_ID_1": 1, "O_ID_2": 1, "HRU_CenX": -74.278845578698807, "HRU_CenY": 46.691734025427976, "HRU_Area": 33396300.0, "HRU_ID": 21, "LAND_USE_C": "Landuse_Land_HRU", "SOIL_PROF": "Soil_Land_HRU", "VEG_C": "Veg_Land_HRU", "DowSubId": 23000243, "RivSlope": -1.2345, "RivLength": -1.2345, "BasSlope": 28.891698015467991, "BasAspect": 180.92427663520456, "BasArea": 33396300.0, "BkfWidth": 10.075473261100001, "BkfDepth": 0.33031138210700001, "Lake_Cat": 0.0, "HyLakeId": 0, "LakeVol": 0.0, "LakeDepth": 0.0, "LakeArea": 0.0, "Laketype": 0.0, "Has_POI": 0, "MeanElev": 1470.0219318736163, "FloodP_n": -1.2345, "Q_Mean": 1.719978704212505, "Ch_n": -1.2345, "DrainArea": 33396300.0, "Strahler": 1.0, "Seg_ID": 7.0, "Seg_order": 1.0, "Max_DEM": -1.2345, "Min_DEM": -1.2345, "Obs_NM": "<NA>", "SRC_obs": "<NA>", "centroid_x": -74.278825695089466, "centroid_y": 46.691726265670383, "DA_Chn_L": 14645.878784799999, "DA_Slope": 24.2783957157, "DA_Chn_Slp": 0.010514903357, "HRU_S_mean": 28.891698015467991, "HRU_A_mean": 180.92427663520456, "HRU_E_mean": 1470.0219318736163, "HRU_A_G": 34058699.999997802 }, "geometry": { "type": "MultiPolygon", "coordinates": [ [ [ [ -74.24384444224799, 46.739469461241804 ], [ -74.262272291280937, 46.663613925331525 ], [ -74.323306225842614, 46.634362479644821 ], [ -74.295505792042391, 46.692782754178872 ], [ -74.304601608620203, 46.715207553021074 ], [ -74.24384444224799, 46.739469461241804 ] ] ], [ [ [ -74.281749340590792, 46.649808346161031 ], [ -74.281992844367551, 46.650147075099994 ], [ -74.281625148710376, 46.650061552766417 ], [ -74.281749340590792, 46.649808346161031 ] ] ] ] } },
{ "type": "Feature", "properties": { "SubId": 23000253, "HRU_IsLake": -1, "Landuse_ID": 1, "Veg_ID": 1, "Soil_ID": 1, "O_ID_1": 1, "O_ID_2": 1, "HRU_CenX": -74.323915516417514, "HRU_CenY": 46.637436055623667, "HRU_Area": 513900.0, "HRU_ID": 22, "LAND_USE_C": "Landuse_Land_HRU", "SOIL_PROF": "Soil_Land_HRU", "VEG_C": "Veg_Land_HRU", "DowSubId": 23000243, "RivSlope": 0.0162874288242, "RivLength": 1412.13203436, "BasSlope": 25.907192447500002, "BasAspect": 159.80094177699999, "BasArea": 513900.0, "BkfWidth": 33.202067027299996, "BkfDepth": 0.67555908606299997, "Lake_Cat": 0.0, "HyLakeId": 0, "LakeVol": 0.0, "LakeDepth": 0.0, "LakeArea": 0.0, "Laketype": 0.0, "Has_POI": 0, "MeanElev": 1394.7462870100001, "FloodP_n": 0.1, "Q_Mean": 21.264993342699999, "Ch_n": 0.096093135384899997, "DrainArea": 391328999.99999988, "Strahler": 3.0, "Seg_ID": 104.0, "Seg_order": 1.0, "Max_DEM": 1139.0, "Min_DEM": 1116.0, "Obs_NM": "<NA>", "SRC_obs": "<NA>", "centroid_x": -74.323993300207917, "centroid_y": 46.637483223449678, "DA_Chn_L": 40093.006486400001, "DA_Slope": 4.0957332864299998, "DA_Chn_Slp": 0.0090788901082699998, "HRU_S_mean": 25.907192447500002, "HRU_A_mean": 159.80094177699999, "HRU_E_mean": 1394.7462870100001, "HRU_A_G": 526500.00000082375 }, "geometry": { "type": "MultiPolygon", "coordinates": [ [ [ [ -74.328317565334402, 46.638345810155208 ], [ -74.318241529414976, 46.641365168090282 ], [ -74.325907961443221, 46.629044340091468 ], [ -74.328317565334402, 46.638345810155208 ] ] ], [ [ [ -74.325664235544309, 46.628705757209723 ], [ -74.325172754472462, 46.62887365889754 ], [ -74.325296634658102, 46.62862041648102 ], [ -74.325664235544309, 46.628705757209723 ] ] ] ] } },
{ "type": "Feature", "properties": { "SubId": 23000259, "HRU_IsLake": -1, "Landuse_ID": 1, "Veg_ID": 1, "Soil_ID": 1, "O_ID_1": 1, "O_ID_2": 1, "HRU_CenX": -74.22440996539531, "HRU_CenY": 46.61450183221384, "HRU_Area": 7730100.0, "HRU_ID": 23, "LAND_USE_C": "Landuse_Land_HRU", "SOIL_PROF": "Soil_Land_HRU", "VEG_C": "Veg_Land_HRU", "DowSubId": 23000277, "RivSlope": 0.022441333025799998, "RivLength": 3609.4112549699998, "BasSlope": 22.842238878030074, "BasAspect": 168.91133736782152, "BasArea": 7730100.0, "BkfWidth": 38.737963738799998, "BkfDepth": 0.74104799960900003, "Lake_Cat": 0.0, "HyLakeId": 0, "LakeVol": 0.0, "LakeDepth": 0.0, "LakeArea": 0.0, "Laketype": 0.0, "Has_POI": 0, "MeanElev": 1404.5811075707916, "FloodP_n": 0.113315591658, "Q_Mean": 28.9473347729, "Ch_n": 0.113315591658, "DrainArea": 537970499.99999952, "Strahler": 3.0, "Seg_ID": 106.0, "Seg_order": 1.0, "Max_DEM": 1121.0, "Min_DEM": 1040.0, "Obs_NM": "<NA>", "SRC_obs": "<NA>", "centroid_x": -74.224354849044019, "centroid_y": 46.614532233205395, "DA_Chn_L": 57454.326829899997, "DA_Slope": 4.4814711818299999, "DA_Chn_Slp": 0.012949416363399999, "HRU_S_mean": 22.842238878030074, "HRU_A_mean": 168.91133736782152, "HRU_E_mean": 1404.5811075707916, "HRU_A_G": 7880399.9999987949 }, "geometry": { "type": "Polygon", "coordinates": [ [ [ -74.209179458906931, 46.638256246037813 ], [ -74.197860536425054, 46.626299772704883 ], [ -74.216443747228183, 46.601014790501473 ], [ -74.258977793131123, 46.601912158290084 ], [ -74.209179458906931, 46.638256246037813 ] ] ] } },
{ "type": "Feature", "properties": { "SubId": 23000260, "HRU_IsLake": -1, "Landuse_ID": 1, "Veg_ID": 1, "Soil_ID": 1, "O_ID_1": 1, "O_ID_2": 1, "HRU_CenX": -74.263857982912597, "HRU_CenY": 46.579396170213414, "HRU_Area": 32570100.0, "HRU_ID": 24, "LAND_USE_C": "Landuse_Land_HRU", "SOIL_PROF": "Soil_Land_HRU", "VEG_C": "Veg_Land_HRU", "DowSubId": 23000277, "RivSlope": -1.2345, "RivLength": -1.2345, "BasSlope": 26.07936555778274, "BasAspect": 159.46767198574628, "BasArea": 32570100.0, "BkfWidth": 9.9539165497299997, "BkfDepth": 0.32791453207, "Lake_Cat": 0.0, "HyLakeId": 0, "LakeVol": 0.0, "LakeDepth": 0.0, "LakeArea": 0.0, "Laketype": 0.0, "Has_POI": 0, "MeanElev": 1425.9446726145536, "FloodP_n": -1.2345, "Q_Mean": 1.885502779029572, "Ch_n": -1.2345, "DrainArea": 32570100.0, "Strahler": 1.0, "Seg_ID": 13.0, "Seg_order": 1.0, "Max_DEM": -1.2345, "Min_DEM": -1.2345, "Obs_NM": "<NA>", "SRC_obs": "<NA>", "centroid_x": -74.263859197269724, "centroid_y": 46.579396227139533, "DA_Chn_L": 14782.5692604, "DA_Slope": 22.821147285399999, "DA_Chn_Slp": 0.012244150310499999, "HRU_S_mean": 26.07936555778274, "HRU_A_mean": 159.46767198574628, "HRU_E_mean": 1425.9446726145536, "HRU_A_G": 33191099.999998521 }, "geometry": { "type": "Polygon", "coordinates": [ [ [ -74.219997035525182, 46.601280471677526 ], [ -74.211459438412803, 46.578690910865348 ], [ -74.245139139787184, 46.562581188337901 ], [ -74.246226764559111, 46.546195166265825 ], [ -74.292989566380967, 46.570069271119763 ], [ -74.311049800543898, 46.55989213997416 ], [ -74.311329822191908, 46.60112423892727 ], [ -74.280988923118969, 46.590399290733579 ], [ -74.273797958122373, 46.604236716097795 ], [ -74.219997035525182, 46.601280471677526 ] ] ] } },
{ "type": "Feature", "properties": { "SubId": 23000277, "HRU_IsLake": -1, "Landuse_ID": 1, "Veg_ID": 1, "Soil_ID": 1, "O_ID_1": 1, "O_ID_2": 1, "HRU_CenX": -74.201827399521292, "HRU_CenY": 46.592863177305475, "HRU_Area": 9207000.0, "HRU_ID": 25, "LAND_USE_C": "Landuse_Land_HRU", "SOIL_PROF": "Soil_Land_HRU", "VEG_C": "Veg_Land_HRU", "DowSubId": 23000236, "RivSlope": 0.0132462108334, "RivLength": 5963.9696961999998, "BasSlope": 25.738018763893038, "BasAspect": 167.19126852126738, "BasArea": 9207000.0, "BkfWidth": 40.167514038500002, "BkfDepth": 0.75733711127900005, "Lake_Cat": 0.0, "HyLakeId": 0, "LakeVol": 0.0, "LakeDepth": 0.0, "LakeArea": 0.0, "Laketype": 0.0, "Has_POI": 0, "MeanElev": 1392.6436207313284, "FloodP_n": 0.1, "Q_Mean": 31.1232481487, "Ch_n": 0.087149066128399996, "DrainArea": 579747599.99999952, "Strahler": 3.0, "Seg_ID": 107.0, "Seg_order": 1.0, "Max_DEM": 1119.0, "Min_DEM": 1040.0, "Obs_NM": "<NA>", "SRC_obs": "<NA>", "centroid_x": -74.201842580479379, "centroid_y": 46.592886836257527, "DA_Chn_L": 63418.296526099999, "DA_Slope": 4.56727933187, "DA_Chn_Slp": 0.012977327444599999, "HRU_S_mean": 25.738018763893038, "HRU_A_mean": 167.19126852126738, "HRU_E_mean": 1392.6436207313284, "HRU_A_G": 9399599.9999987986 }, "geometry": { "type": "MultiPolygon", "coordinates": [ [ [ [ -74.216024262625879, 46.574397816877337 ], [ -74.216108921857852, 46.61335073814265 ], [ -74.189518784136922, 46.610804556564382 ], [ -74.184392403786802, 46.577155756344467 ], [ -74.216024262625879, 46.574397816877337 ] ] ], [ [ [ -74.21639119604653, 46.574483572843782 ], [ -74.216148618814259, 46.574144779669503 ], [ -74.216515550361279, 46.574230535049175 ], [ -74.21639119604653, 46.574483572843782 ] ] ] ] } },
{ "type": "Feature", "properties": { "SubId": 23000278, "HRU_IsLake": -1, "Landuse_ID": 1, "Veg_ID": 1, "Soil_ID": 1, "O_ID_1": 1, "O_ID_2": 1, "HRU_CenX": -74.188122801517295, "HRU_CenY": 46.555966947081984, "HRU_Area": 13021200.0, "HRU_ID": 26, "LAND_USE_C": "Landuse_Land_HRU", "SOIL_PROF": "Soil_Land_HRU", "VEG_C": "Veg_Land_HRU", "DowSubId": 23000236, "RivSlope": 0.013953372483199999, "RivLength": 5733.3809511700001, "BasSlope": 16.804798116400001, "BasAspect": 184.38043566100001, "BasArea": 13021200.0, "BkfWidth": 20.268419371899999, "BkfDepth": 0.50240759406900004, "Lake_Cat": 0.0, "HyLakeId": 0, "LakeVol": 0.0, "LakeDepth": 0.0, "LakeArea": 0.0, "Laketype": 0.0, "Has_POI": 0, "MeanElev": 1434.8917457, "FloodP_n": 0.1, "Q_Mean": 7.9245529288999998, "Ch_n": 0.087452534080199998, "DrainArea": 141310799.99999949, "Strahler": 2.0, "Seg_ID": 113.0, "Seg_order": 2.0, "Max_DEM": 1120.0, "Min_DEM": 1040.0, "Obs_NM": "<NA>", "SRC_obs": "<NA>", "centroid_x": -74.188076329403913, "centroid_y": 46.555967470917437, "DA_Chn_L": 36234.183976400003, "DA_Slope": 9.2584599495099997, "DA_Chn_Slp": 0.0096317885957300006, "HRU_S_mean": 16.804798116400001, "HRU_A_mean": 184.38043566100001, "HRU_E_mean": 1434.8917457, "HRU_A_G": 13297499.999999104 }, "geometry": { "type": "Polygon", "coordinates": [ [ [ -74.180834469845706, 46.577733608038692 ], [ -74.157978430980194, 46.556859336885175 ], [ -74.166624887543193, 46.533493616259513 ], [ -74.18599377754667, 46.529852080897996 ], [ -74.194286138278855, 46.549566149394238 ], [ -74.221163953212056, 46.558109629557983 ], [ -74.209152111590441, 46.575894625275893 ], [ -74.180834469845706, 46.577733608038692 ] ] ] } },
{ "type": "Feature", "properties": { "SubId": 23000444, "HRU_IsLake": -1, "Landuse_ID": 1, "Veg_ID": 1, "Soil_ID": 1, "O_ID_1": 1, "O_ID_2": 1, "HRU_CenX": -73.973560811685772, "HRU_CenY": 46.557444311763724, "HRU_Area": 33284700.000000101, "HRU_ID": 27, "LAND_USE_C": "Landuse_Land_HRU", "SOIL_PROF": "Soil_Land_HRU", "VEG_C": "Veg_Land_HRU", "DowSubId": 23000198, "RivSlope": -1.2345, "RivLength": -1.2345, "BasSlope": 26.949431884689908, "BasAspect": 168.24932784257226, "BasArea": 33284700.000000101, "BkfWidth": 10.0591451013, "BkfDepth": 0.32999009934599999, "Lake_Cat": 0.0, "HyLakeId": 0, "LakeVol": 0.0, "LakeDepth": 0.0, "LakeArea": 0.0, "Laketype": 0.0, "Has_POI": 0, "MeanElev": 1474.4324675977884, "FloodP_n": -1.2345, "Q_Mean": 1.95189815143, "Ch_n": -1.2345, "DrainArea": 33284700.000000101, "Strahler": 1.0, "Seg_ID": 16.0, "Seg_order": 1.0, "Max_DEM": -1.2345, "Min_DEM": -1.2345, "Obs_NM": "<NA>", "SRC_obs": "<NA>", "centroid_x": -73.973581105608403, "centroid_y": 46.557426762731374, "DA_Chn_L": 11099.482681699999, "DA_Slope": 18.4608999963, "DA_Chn_Slp": 0.0191900835478, "HRU_S_mean": 26.949431884689908, "HRU_A_mean": 168.24932784257226, "HRU_E_mean": 1474.4324675977884, "HRU_A_G": 34001999.999997087 }, "geometry": { "type": "Polygon", "coordinates": [ [ [ -73.99861539272581, 46.59924597073956 ], [ -73.951276485700703, 46.591438412275863 ], [ -73.965902415207822, 46.55055204922477 ], [ -73.922939663735249, 46.531606939022218 ], [ -73.934026873732819, 46.508534486970554 ], [ -74.004590332202426, 46.541067344046475 ], [ -74.015840160611091, 46.562927889480363 ], [ -73.99861539272581, 46.59924597073956 ] ] ] } },
{ "type": "Feature", "properties": { "SubId": 23000445, "HRU_IsLake": -1, "Landuse_ID": 1, "Veg_ID": 1, "Soil_ID": 1, "O_ID_1": 1, "O_ID_2": 1, "HRU_CenX": -73.947715141476351, "HRU_CenY": 46.594984061126219, "HRU_Area": 1945800.0, "HRU_ID": 28, "LAND_USE_C": "Landuse_Land_HRU", "SOIL_PROF": "Soil_Land_HRU", "VEG_C": "Veg_Land_HRU", "DowSubId": 23000198, "RivSlope": 0.016490144025014999, "RivLength": 2061.8376618439997, "BasSlope": 23.859243768116098, "BasAspect": 221.085052361321, "BasArea": 1945800.0, "BkfWidth": 8.1071500405000005, "BkfDepth": 0.28992468414400002, "Lake_Cat": 0.0, "HyLakeId": 0, "LakeVol": 0.0, "LakeDepth": 0.0, "LakeArea": 0.0, "Laketype": 0.0, "Has_POI": 0, "MeanElev": 1435.2594812836542, "FloodP_n": 0.106162804824593, "Q_Mean": 1.241767754493228, "Ch_n": 0.088080813546260003, "DrainArea": 21324599.999999899, "Strahler": 1.0, "Seg_ID": 17.0, "Seg_order": 2.0, "Max_DEM": 1139.0, "Min_DEM": 1105.0, "Obs_NM": "<NA>", "SRC_obs": "<NA>", "centroid_x": -73.947748378015802, "centroid_y": 46.59501773709772, "DA_Chn_L": 7367.0562748499997, "DA_Slope": 30.336051677099999, "DA_Chn_Slp": 0.010859154188, "HRU_S_mean": 23.859243768116098, "HRU_A_mean": 221.085052361321, "HRU_E_mean": 1435.2594812836542, "HRU_A_G": 1993499.999998986 }, "geometry": { "type": "Polygon", "coordinates": [ [ [ -73.959444752580538, 46.594785126515298 ], [ -73.935778629908199, 46.595395037246647 ], [ -73.933293892717757, 46.588872527101714 ], [ -73.959444752580538, 46.594785126515298 ] ] ] } },
{ "type": "Feature", "properties": { "SubId": 23005515, "HRU_IsLake": -1, "Landuse_ID": 1, "Veg_ID": 1, "Soil_ID": 1, "O_ID_1": 1, "O_ID_2": 1, "HRU_CenX": -74.26012876093607, "HRU_CenY": 46.493663037901911, "HRU_Area": 80962199.999999493, "HRU_ID": 29, "LAND_USE_C": "Landuse_Land_HRU", "SOIL_PROF": "Soil_Land_HRU", "VEG_C": "Veg_Land_HRU", "DowSubId": 23007842, "RivSlope": -1.2345, "RivLength": -1.2345, "BasSlope": 27.461496368729609, "BasAspect": 164.60545365398463, "BasArea": 80962199.999999493, "BkfWidth": 15.4743542356, "BkfDepth": 0.427298911941, "Lake_Cat": 0.0, "HyLakeId": 0, "LakeVol": 0.0, "LakeDepth": 0.0, "LakeArea": 0.0, "Laketype": 0.0, "Has_POI": 0, "MeanElev": 1476.7092124631206, "FloodP_n": -1.2345, "Q_Mean": 3.2709526731343752, "Ch_n": -1.2345, "DrainArea": 80962199.999999493, "Strahler": 1.0, "Seg_ID": 14.0, "Seg_order": 1.0, "Max_DEM": -1.2345, "Min_DEM": -1.2345, "Obs_NM": "<NA>", "SRC_obs": "<NA>", "centroid_x": -74.260140669145642, "centroid_y": 46.493652646759145, "DA_Chn_L": 23430.731598499999, "DA_Slope": 11.3173230622, "DA_Chn_Slp": 0.011480648774000001, "HRU_S_mean": 27.461496368729609, "HRU_A_mean": 164.60545365398463, "HRU_E_mean": 1476.7092124631206, "HRU_A_G": 82691099.999994189 }, "geometry": { "type": "Polygon", "coordinates": [ [ [ -74.216024262625879, 46.574397816877337 ], [ -74.213317878635792, 46.542453755991737 ], [ -74.228381253246667, 46.524258619284844 ], [ -74.193894160298541, 46.489675853770322 ], [ -74.222390649738387, 46.489016774125503 ], [ -74.204951458836604, 46.43389559595272 ], [ -74.307572680135365, 46.450841062725537 ], [ -74.344110881478628, 46.477103057702642 ], [ -74.327912522894366, 46.49024320271463 ], [ -74.301197049845229, 46.478102126284909 ], [ -74.311913122122718, 46.510476730605106 ], [ -74.280784635383526, 46.519856537178597 ], [ -74.271516060177063, 46.555479170847406 ], [ -74.247208474552863, 46.545860318498576 ], [ -74.245139139787184, 46.562581188337901 ], [ -74.216024262625879, 46.574397816877337 ] ] ] } },
{ "type": "Feature", "properties": { "SubId": 23007722, "HRU_IsLake": 1, "Landuse_ID": -1, "Veg_ID": -1, "Soil_ID": -1, "O_ID_1": -1, "O_ID_2": -1, "HRU_CenX": -74.293453760976135, "HRU_CenY": 46.822140309021208, "HRU_Area": 2911469.6578453118, "HRU_ID": 30, "LAND_USE_C": "LAKE", "SOIL_PROF": "LAKE", "VEG_C": "LAKE", "DowSubId": 23000187, "RivSlope": -1.2345, "RivLength": -1.2345, "BasSlope": 23.746542970060538, "BasAspect": 162.46195163561055, "BasArea": 24636600.0, "BkfWidth": 8.6945865718200004, "BkfDepth": 0.30235254458499999, "Lake_Cat": 1.0, "HyLakeId": 106724, "LakeVol": 20.71, "LakeDepth": 7.4, "LakeArea": 2790000.0, "Laketype": 1.0, "Has_POI": 0, "MeanElev": 1505.90884641922, "FloodP_n": -1.2345, "Q_Mean": 0.91122742666557099, "Ch_n": -1.2345, "DrainArea": 24636600.0, "Strahler": 2.0, "Seg_ID": 101.0, "Seg_order": 1.0, "Max_DEM": -1.2345, "Min_DEM": -1.2345, "Obs_NM": "<NA>", "SRC_obs": "<NA>", "centroid_x": -74.309228906868199, "centroid_y": 46.826581369041754, "DA_Chn_L": 5403.3809511600002, "DA_Slope": 15.451056772599999, "DA_Chn_Slp": 0.011474297400199999, "HRU_S_mean": 23.746542970060538, "HRU_A_mean": 162.46195163561055, "HRU_E_mean": 1505.90884641922, "HRU_A_G": 2965500.0000012806 }, "geometry": { "type": "Polygon", "coordinates": [ [ [ -74.316323034908152, 46.829390595455109 ], [ -74.277552263994465, 46.821256226378793 ], [ -74.284154658437885, 46.808672746044799 ], [ -74.316323034908152, 46.829390595455109 ] ] ] } },
{ "type": "Feature", "properties": { "SubId": 23007722, "HRU_IsLake": -1, "Landuse_ID": 1, "Veg_ID": 1, "Soil_ID": 1, "O_ID_1": 1, "O_ID_2": 1, "HRU_CenX": -74.311317036774966, "HRU_CenY": 46.82719771516399, "HRU_Area": 21725130.342154685, "HRU_ID": 31, "LAND_USE_C": "Landuse_Land_HRU", "SOIL_PROF": "Soil_Land_HRU", "VEG_C": "Veg_Land_HRU", "DowSubId": 23000187, "RivSlope": -1.2345, "RivLength": -1.2345, "BasSlope": 23.746542970060538, "BasAspect": 162.46195163561055, "BasArea": 24636600.0, "BkfWidth": 8.6945865718200004, "BkfDepth": 0.30235254458499999, "Lake_Cat": 1.0, "HyLakeId": 106724, "LakeVol": 20.71, "LakeDepth": 7.4, "LakeArea": 2790000.0, "Laketype": 1.0, "Has_POI": 0, "MeanElev": 1505.90884641922, "FloodP_n": -1.2345, "Q_Mean": 0.91122742666557099, "Ch_n": -1.2345, "DrainArea": 24636600.0, "Strahler": 2.0, "Seg_ID": 101.0, "Seg_order": 1.0, "Max_DEM": -1.2345, "Min_DEM": -1.2345, "Obs_NM": "<NA>", "SRC_obs": "<NA>", "centroid_x": -74.309228906868199, "centroid_y": 46.826581369041754, "DA_Chn_L": 5403.3809511600002, "DA_Slope": 15.451056772599999, "DA_Chn_Slp": 0.011474297400199999, "HRU_S_mean": 23.746542970060538, "HRU_A_mean": 162.46195163561055, "HRU_E_mean": 1505.90884641922, "HRU_A_G": 22128299.999996267 }, "geometry": { "type": "Polygon", "coordinates": [ [ [ -74.297432695701815, 46.858610387356428 ], [ -74.267102823129179, 46.817420723986885 ], [ -74.29912391552638, 46.79661853271385 ], [ -74.32903060399849, 46.800157064332495 ], [ -74.349322061338199, 46.835890572509157 ], [ -74.297432695701815, 46.858610387356428 ] ], [ [ -74.289087303896963, 46.829576157596925 ], [ -74.291570798527175, 46.82619955346086 ], [ -74.288363179625279, 46.82686770957158 ], [ -74.287140521173427, 46.825172888203873 ], [ -74.316323034908152, 46.829390595455109 ], [ -74.284154658437885, 46.808672746044799 ], [ -74.277552263994465, 46.821256226378793 ], [ -74.289087303896963, 46.829576157596925 ] ] ] } },
{ "type": "Feature", "properties": { "SubId": 23007794, "HRU_IsLake": 1, "Landuse_ID": -1, "Veg_ID": -1, "Soil_ID": -1, "O_ID_1": -1, "O_ID_2": -1, "HRU_CenX": -74.140862660466411, "HRU_CenY": 46.670155898627883, "HRU_Area": 8268865.0110744238, "HRU_ID": 32, "LAND_USE_C": "LAKE", "SOIL_PROF": "LAKE", "VEG_C": "LAKE", "DowSubId": 23000235, "RivSlope": -1.2345, "RivLength": -1.2345, "BasSlope": 28.666855880335905, "BasAspect": 172.31489381057392, "BasArea": 51765300.000001, "BkfWidth": 12.459292059699999, "BkfDepth": 0.37519780248899998, "Lake_Cat": 1.0, "HyLakeId": 106990, "LakeVol": 69.78, "LakeDepth": 8.9, "LakeArea": 7810000.0, "Laketype": 1.0, "Has_POI": 0, "MeanElev": 1427.1883816628149, "FloodP_n": -1.2345, "Q_Mean": 2.9944822266400002, "Ch_n": -1.2345, "DrainArea": 51765300.000001, "Strahler": 1.0, "Seg_ID": 8.0, "Seg_order": 1.0, "Max_DEM": -1.2345, "Min_DEM": -1.2345, "Obs_NM": "<NA>", "SRC_obs": "<NA>", "centroid_x": -74.131118101209651, "centroid_y": 46.678112169437519, "DA_Chn_L": 14141.025971, "DA_Slope": 18.225922529399998, "DA_Chn_Slp": 0.0041015411554100002, "HRU_S_mean": 28.666855880335905, "HRU_A_mean": 172.31489381057392, "HRU_E_mean": 1427.1883816628149, "HRU_A_G": 8437499.9999985211 }, "geometry": { "type": "Polygon", "coordinates": [ [ [ -74.136019456219969, 46.709223977335284 ], [ -74.140650979026375, 46.699860331505917 ], [ -74.136510455112003, 46.695784975714233 ], [ -74.136587348748066, 46.68733216404901 ], [ -74.150203870930767, 46.661440570822954 ], [ -74.137341099700436, 46.658427938497425 ], [ -74.134447630071577, 46.652668182755036 ], [ -74.128920706820011, 46.653066657402569 ], [ -74.131172955230511, 46.67505215780286 ], [ -74.112328894176812, 46.680800296846961 ], [ -74.130116995657772, 46.669722487961494 ], [ -74.120100155389494, 46.664268626434641 ], [ -74.122432480853533, 46.65126306035436 ], [ -74.130030784534668, 46.652479903587448 ], [ -74.132868376155244, 46.650886463621191 ], [ -74.128811286435379, 46.651629379033466 ], [ -74.111158395143363, 46.636760043820104 ], [ -74.142410071845589, 46.64070115744488 ], [ -74.147633168294035, 46.646723709695756 ], [ -74.145596127205181, 46.654997800421775 ], [ -74.140921361851383, 46.656161251024081 ], [ -74.162479721209351, 46.66149084465544 ], [ -74.147500068444927, 46.703439737021164 ], [ -74.144682205184154, 46.702498003826655 ], [ -74.144166570047943, 46.705200971076003 ], [ -74.137491093995962, 46.709568461674536 ], [ -74.136019456219969, 46.709223977335284 ] ], [ [ -74.13812211787473, 46.694185783391077 ], [ -74.139593266541297, 46.694530212446665 ], [ -74.140211331435268, 46.694110190080444 ], [ -74.13812211787473, 46.694185783391077 ] ], [ [ -74.141273649080873, 46.657937652777058 ], [ -74.141516110919511, 46.658276762870869 ], [ -74.141641135886005, 46.658023736485362 ], [ -74.141273649080873, 46.657937652777058 ] ], [ [ -74.143633792838756, 46.654820477298415 ], [ -74.14425125866093, 46.654400498291722 ], [ -74.143883797126648, 46.654314426283662 ], [ -74.143633792838756, 46.654820477298415 ] ], [ [ -74.140796338043401, 46.656414274445275 ], [ -74.140553892088732, 46.656075165129586 ], [ -74.140428866403482, 46.656328187961478 ], [ -74.140796338043401, 46.656414274445275 ] ], [ [ -74.145808350202941, 46.700220306606681 ], [ -74.146301319145621, 46.700053310070956 ], [ -74.145933470190869, 46.699967229640436 ], [ -74.145808350202941, 46.700220306606681 ] ], [ [ -74.131914525566572, 46.64783971821273 ], [ -74.132406958020709, 46.647672832654422 ], [ -74.132039576202928, 46.647586715978868 ], [ -74.131914525566572, 46.64783971821273 ] ], [ [ -74.131062494236915, 46.647075357008141 ], [ -74.13253976430309, 46.646574708054992 ], [ -74.130945229131612, 46.64648323595604 ], [ -74.131062494236915, 46.647075357008141 ] ], [ [ -74.130577860164635, 46.646397113899219 ], [ -74.131070281493919, 46.646230236484691 ], [ -74.130702914402846, 46.646144115017293 ], [ -74.130577860164635, 46.646397113899219 ] ], [ [ -74.130335548756349, 46.646057992120042 ], [ -74.130827967196552, 46.645891116236541 ], [ -74.130460603425902, 46.64580499392877 ], [ -74.130335548756349, 46.646057992120042 ] ], [ [ -74.142671543492966, 46.652618933753253 ], [ -74.143163988685018, 46.65245198747499 ], [ -74.14279654563471, 46.652365911850318 ], [ -74.142671543492966, 46.652618933753253 ] ], [ [ -74.135197907138433, 46.651150119326253 ], [ -74.138175545933805, 46.647613262103057 ], [ -74.133884232869491, 46.647172160933231 ], [ -74.135197907138433, 46.651150119326253 ] ], [ [ -74.144750000908985, 46.694890238482031 ], [ -74.146251235857491, 46.691853406930406 ], [ -74.14364659772707, 46.694631979996323 ], [ -74.144750000908985, 46.694890238482031 ] ], [ [ -74.147001775211208, 46.690334996590764 ], [ -74.148840640193967, 46.69076534569929 ], [ -74.149215862135719, 46.690006133046992 ], [ -74.147001775211208, 46.690334996590764 ] ], [ [ -74.145197776622965, 46.699795064482267 ], [ -74.145690743105305, 46.699628071501408 ], [ -74.145322898926125, 46.699541988795772 ], [ -74.145197776622965, 46.699795064482267 ] ], [ [ -74.144955056194121, 46.699455904657775 ], [ -74.14544801978208, 46.699288913209813 ], [ -74.145080178931224, 46.699202829661488 ], [ -74.144955056194121, 46.699455904657775 ] ], [ [ -74.145425462006827, 46.701824855073433 ], [ -74.145918450486818, 46.701657859450272 ], [ -74.14555058879705, 46.701571776914406 ], [ -74.145425462006827, 46.701824855073433 ] ] ] } },
{ "type": "Feature", "properties": { "SubId": 23007794, "HRU_IsLake": -1, "Landuse_ID": 1, "Veg_ID": 1, "Soil_ID": 1, "O_ID_1": 1, "O_ID_2": 1, "HRU_CenX": -74.129253888966886, "HRU_CenY": 46.679652854558547, "HRU_Area": 43496434.988926575, "HRU_ID": 33, "LAND_USE_C": "Landuse_Land_HRU", "SOIL_PROF": "Soil_Land_HRU", "VEG_C": "Veg_Land_HRU", "DowSubId": 23000235, "RivSlope": -1.2345, "RivLength": -1.2345, "BasSlope": 28.666855880335905, "BasAspect": 172.31489381057392, "BasArea": 51765300.000001, "BkfWidth": 12.459292059699999, "BkfDepth": 0.37519780248899998, "Lake_Cat": 1.0, "HyLakeId": 106990, "LakeVol": 69.78, "LakeDepth": 8.9, "LakeArea": 7810000.0, "Laketype": 1.0, "Has_POI": 0, "MeanElev": 1427.1883816628149, "FloodP_n": -1.2345, "Q_Mean": 2.9944822266400002, "Ch_n": -1.2345, "DrainArea": 51765300.000001, "Strahler": 1.0, "Seg_ID": 8.0, "Seg_order": 1.0, "Max_DEM": -1.2345, "Min_DEM": -1.2345, "Obs_NM": "<NA>", "SRC_obs": "<NA>", "centroid_x": -74.131118101209651, "centroid_y": 46.678112169437519, "DA_Chn_L": 14141.025971, "DA_Slope": 18.225922529399998, "DA_Chn_Slp": 0.0041015411554100002, "HRU_S_mean": 28.666855880335905, "HRU_A_mean": 172.31489381057392, "HRU_E_mean": 1427.1883816628149, "HRU_A_G": 44383499.999997817 }, "geometry": { "type": "MultiPolygon", "coordinates": [ [ [ [ -74.16501001126943, 46.725322556531033 ], [ -74.124777006127289, 46.728619312664044 ], [ -74.116243537999864, 46.695272794138951 ], [ -74.079872206615534, 46.695777268673616 ], [ -74.068358737867442, 46.680926999858045 ], [ -74.107087192041419, 46.651615882564613 ], [ -74.108554807370112, 46.6395369817958 ], [ -74.109931507968597, 46.63675440849466 ], [ -74.113002793459216, 46.636345924791712 ], [ -74.110532679162333, 46.638024856696653 ], [ -74.113204266867356, 46.640910532762383 ], [ -74.132868376155244, 46.650886463621191 ], [ -74.122432480853533, 46.65126306035436 ], [ -74.120100155389494, 46.664268626434641 ], [ -74.130116995657772, 46.669722487961494 ], [ -74.112328894176812, 46.680800296846961 ], [ -74.131172955230511, 46.67505215780286 ], [ -74.128920706820011, 46.653066657402569 ], [ -74.134447630071577, 46.652668182755036 ], [ -74.137341099700436, 46.658427938497425 ], [ -74.150203870930767, 46.661440570822954 ], [ -74.136587348748066, 46.68733216404901 ], [ -74.136510455112003, 46.695784975714233 ], [ -74.140650979026375, 46.699860331505917 ], [ -74.147279762230013, 46.70056462209287 ], [ -74.136410448966885, 46.706774080970163 ], [ -74.136019456219969, 46.709223977335284 ], [ -74.147500068444927, 46.703439737021164 ], [ -74.162479721209351, 46.66149084465544 ], [ -74.140921361851383, 46.656161251024081 ], [ -74.145596127205181, 46.654997800421775 ], [ -74.147633168294035, 46.646723709695756 ], [ -74.142410071845589, 46.64070115744488 ], [ -74.112377136639694, 46.637610747951094 ], [ -74.128827170694208, 46.636670368104753 ], [ -74.140429887018612, 46.628945674924587 ], [ -74.157553616001536, 46.649046674653512 ], [ -74.183865289862638, 46.643065292960529 ], [ -74.16329674141889, 46.666480894299141 ], [ -74.16501001126943, 46.725322556531033 ] ] ], [ [ [ -74.141516110919511, 46.658276762870869 ], [ -74.141273649080873, 46.657937652777058 ], [ -74.141641135886005, 46.658023736485362 ], [ -74.141516110919511, 46.658276762870869 ] ] ], [ [ [ -74.139593266541297, 46.694530212446665 ], [ -74.13812211787473, 46.694185783391077 ], [ -74.140211331435268, 46.694110190080444 ], [ -74.139593266541297, 46.694530212446665 ] ] ], [ [ [ -74.146301319145621, 46.700053310070956 ], [ -74.145808350202941, 46.700220306606681 ], [ -74.145933470190869, 46.699967229640436 ], [ -74.146301319145621, 46.700053310070956 ] ] ], [ [ [ -74.140553892088732, 46.656075165129586 ], [ -74.140796338043401, 46.656414274445275 ], [ -74.140428866403482, 46.656328187961478 ], [ -74.140553892088732, 46.656075165129586 ] ] ], [ [ [ -74.14425125866093, 46.654400498291722 ], [ -74.143633792838756, 46.654820477298415 ], [ -74.143883797126648, 46.654314426283662 ], [ -74.14425125866093, 46.654400498291722 ] ] ], [ [ [ -74.113854301035161, 46.637110417899947 ], [ -74.113361916652082, 46.637277197091542 ], [ -74.113487044267288, 46.637024231280009 ], [ -74.113854301035161, 46.637110417899947 ] ] ], [ [ [ -74.113612170437563, 46.63677126556945 ], [ -74.113119788944331, 46.636938043230884 ], [ -74.113244916988933, 46.636685078110169 ], [ -74.113612170437563, 46.63677126556945 ] ] ], [ [ [ -74.132406958020709, 46.647672832654422 ], [ -74.131914525566572, 46.64783971821273 ], [ -74.132039576202928, 46.647586715978868 ], [ -74.132406958020709, 46.647672832654422 ] ] ], [ [ [ -74.13253976430309, 46.646574708054992 ], [ -74.131062494236915, 46.647075357008141 ], [ -74.130945229131612, 46.64648323595604 ], [ -74.13253976430309, 46.646574708054992 ] ] ], [ [ [ -74.131070281493919, 46.646230236484691 ], [ -74.130577860164635, 46.646397113899219 ], [ -74.130702914402846, 46.646144115017293 ], [ -74.131070281493919, 46.646230236484691 ] ] ], [ [ [ -74.130827967196552, 46.645891116236541 ], [ -74.130335548756349, 46.646057992120042 ], [ -74.130460603425902, 46.64580499392877 ], [ -74.130827967196552, 46.645891116236541 ] ] ], [ [ [ -74.143163988685018, 46.65245198747499 ], [ -74.142671543492966, 46.652618933753253 ], [ -74.14279654563471, 46.652365911850318 ], [ -74.143163988685018, 46.65245198747499 ] ] ], [ [ [ -74.138175545933805, 46.647613262103057 ], [ -74.135197907138433, 46.651150119326253 ], [ -74.133884232869491, 46.647172160933231 ], [ -74.138175545933805, 46.647613262103057 ] ] ], [ [ [ -74.144750000908985, 46.694890238482031 ], [ -74.143896829303984, 46.69412584393568 ], [ -74.146251235857491, 46.691853406930406 ], [ -74.144750000908985, 46.694890238482031 ] ] ], [ [ [ -74.147001775211208, 46.690334996590764 ], [ -74.149215862135719, 46.690006133046992 ], [ -74.14637632936622, 46.691600338288687 ], [ -74.147001775211208, 46.690334996590764 ] ] ], [ [ [ -74.145197776622965, 46.699795064482267 ], [ -74.145690743105305, 46.699628071501408 ], [ -74.145565622683321, 46.699881147777525 ], [ -74.145197776622965, 46.699795064482267 ] ] ], [ [ [ -74.14544801978208, 46.699288913209813 ], [ -74.144955056194121, 46.699455904657775 ], [ -74.145080178931224, 46.699202829661488 ], [ -74.14544801978208, 46.699288913209813 ] ] ], [ [ [ -74.145918450486818, 46.701657859450272 ], [ -74.145425462006827, 46.701824855073433 ], [ -74.14555058879705, 46.701571776914406 ], [ -74.145918450486818, 46.701657859450272 ] ] ] ] } },
{ "type": "Feature", "properties": { "SubId": 23007831, "HRU_IsLake": 1, "Landuse_ID": -1, "Veg_ID": -1, "Soil_ID": -1, "O_ID_1": -1, "O_ID_2": -1, "HRU_CenX": -74.46339386841386, "HRU_CenY": 46.647724647376911, "HRU_Area": 3895090.3235710822, "HRU_ID": 34, "LAND_USE_C": "LAKE", "SOIL_PROF": "LAKE", "VEG_C": "LAKE", "DowSubId": 23000242, "RivSlope": -1.2345, "RivLength": -1.2345, "BasSlope": 25.642187279181915, "BasAspect": 159.43788389342589, "BasArea": 51813000.0, "BkfWidth": 12.464853680099999, "BkfDepth": 0.37529828274900001, "Lake_Cat": 1.0, "HyLakeId": 106963, "LakeVol": 20.11, "LakeDepth": 5.4, "LakeArea": 3710000.0, "Laketype": 1.0, "Has_POI": 0, "MeanElev": 1454.8637616814397, "FloodP_n": -1.2345, "Q_Mean": 2.33359476115369, "Ch_n": -1.2345, "DrainArea": 51813000.0, "Strahler": 1.0, "Seg_ID": 12.0, "Seg_order": 1.0, "Max_DEM": -1.2345, "Min_DEM": -1.2345, "Obs_NM": "<NA>", "SRC_obs": "<NA>", "centroid_x": -74.475851216820885, "centroid_y": 46.657658434069745, "DA_Chn_L": 10614.3354955, "DA_Slope": 9.9393428107700004, "DA_Chn_Slp": 0.0079138256027300007, "HRU_S_mean": 25.642187279181915, "HRU_A_mean": 159.43788389342589, "HRU_E_mean": 1454.8637616814397, "HRU_A_G": 3970800.000001 }, "geometry": { "type": "Polygon", "coordinates": [ [ [ -74.476124954967702, 46.66940632232842 ], [ -74.449632103749636, 46.654848404915704 ], [ -74.44809176967938, 46.626873580314296 ], [ -74.459022991888929, 46.61868617332118 ], [ -74.476124954967702, 46.66940632232842 ] ], [ [ -74.45663608123597, 46.650544273668338 ], [ -74.456880940660724, 46.650882541323178 ], [ -74.457004121264944, 46.650629099157854 ], [ -74.45663608123597, 46.650544273668338 ] ], [ [ -74.463396547506491, 46.644211183982002 ], [ -74.463519671655689, 46.643957740273059 ], [ -74.462660551960681, 46.644041587108923 ], [ -74.463396547506491, 46.644211183982002 ] ], [ [ -74.461556569327485, 46.643787181030014 ], [ -74.460698876641374, 46.643025884020773 ], [ -74.460452599517339, 46.643532762028137 ], [ -74.461556569327485, 46.643787181030014 ] ], [ [ -74.461917542564294, 46.648097657493381 ], [ -74.463386918496809, 46.65012715594326 ], [ -74.464492425994464, 46.64953639812655 ], [ -74.461917542564294, 46.648097657493381 ] ], [ [ -74.466812062488856, 46.657398141759451 ], [ -74.470125169793292, 46.658161176607514 ], [ -74.468165256429302, 46.655455228451778 ], [ -74.466812062488856, 46.657398141759451 ] ] ] } },
{ "type": "Feature", "properties": { "SubId": 23007831, "HRU_IsLake": -1, "Landuse_ID": 1, "Veg_ID": 1, "Soil_ID": 1, "O_ID_1": 1, "O_ID_2": 1, "HRU_CenX": -74.47685692846224, "HRU_CenY": 46.658458115864605, "HRU_Area": 47917909.676428922, "HRU_ID": 35, "LAND_USE_C": "Landuse_Land_HRU", "SOIL_PROF": "Soil_Land_HRU", "VEG_C": "Veg_Land_HRU", "DowSubId": 23000242, "RivSlope": -1.2345, "RivLength": -1.2345, "BasSlope": 25.642187279181915, "BasAspect": 159.43788389342589, "BasArea": 51813000.0, "BkfWidth": 12.464853680099999, "BkfDepth": 0.37529828274900001, "Lake_Cat": 1.0, "HyLakeId": 106963, "LakeVol": 20.11, "LakeDepth": 5.4, "LakeArea": 3710000.0, "Laketype": 1.0, "Has_POI": 0, "MeanElev": 1454.8637616814397, "FloodP_n": -1.2345, "Q_Mean": 2.33359476115369, "Ch_n": -1.2345, "DrainArea": 51813000.0, "Strahler": 1.0, "Seg_ID": 12.0, "Seg_order": 1.0, "Max_DEM": -1.2345, "Min_DEM": -1.2345, "Obs_NM": "<NA>", "SRC_obs": "<NA>", "centroid_x": -74.475851216820885, "centroid_y": 46.657658434069745, "DA_Chn_L": 10614.3354955, "DA_Slope": 9.9393428107700004, "DA_Chn_Slp": 0.0079138256027300007, "HRU_S_mean": 25.642187279181915, "HRU_A_mean": 159.43788389342589, "HRU_E_mean": 1454.8637616814397, "HRU_A_G": 48849299.999997236 }, "geometry": { "type": "MultiPolygon", "coordinates": [ [ [ [ -74.500284036018328, 46.706526490132489 ], [ -74.440815436272914, 46.702427585022043 ], [ -74.439384012372969, 46.682646050156443 ], [ -74.449229411363717, 46.672512694033664 ], [ -74.4455783503699, 46.65645040729224 ], [ -74.454317083300452, 46.643527626462351 ], [ -74.439017981699863, 46.62534350664631 ], [ -74.494123925545196, 46.590992655407277 ], [ -74.515041875387027, 46.681171625591773 ], [ -74.500284036018328, 46.706526490132489 ] ], [ [ -74.477230777345312, 46.668815363955787 ], [ -74.471244257132938, 46.648273563575685 ], [ -74.461427780844048, 46.64742115668291 ], [ -74.470398712147386, 46.639061091261915 ], [ -74.453972465745778, 46.630766251538631 ], [ -74.463314731136748, 46.619112110788478 ], [ -74.459022991888929, 46.61868617332118 ], [ -74.44809176967938, 46.626873580314296 ], [ -74.458977738512104, 46.644883771798959 ], [ -74.449632103749636, 46.654848404915704 ], [ -74.477230777345312, 46.668815363955787 ] ] ], [ [ [ -74.463396547506491, 46.644211183982002 ], [ -74.462660551960681, 46.644041587108923 ], [ -74.463519671655689, 46.643957740273059 ], [ -74.463396547506491, 46.644211183982002 ] ] ], [ [ [ -74.460698876641374, 46.643025884020773 ], [ -74.461556569327485, 46.643787181030014 ], [ -74.460452599517339, 46.643532762028137 ], [ -74.460698876641374, 46.643025884020773 ] ] ], [ [ [ -74.456880940660724, 46.650882541323178 ], [ -74.45663608123597, 46.650544273668338 ], [ -74.457004121264944, 46.650629099157854 ], [ -74.456880940660724, 46.650882541323178 ] ] ], [ [ [ -74.463386918496809, 46.65012715594326 ], [ -74.461917542564294, 46.648097657493381 ], [ -74.464492425994464, 46.64953639812655 ], [ -74.463386918496809, 46.65012715594326 ] ] ], [ [ [ -74.470125169793292, 46.658161176607514 ], [ -74.466812062488856, 46.657398141759451 ], [ -74.468165256429302, 46.655455228451778 ], [ -74.470125169793292, 46.658161176607514 ] ] ] ] } },
{ "type": "Feature", "properties": { "SubId": 23007842, "HRU_IsLake": 1, "Landuse_ID": -1, "Veg_ID": -1, "Soil_ID": -1, "O_ID_1": -1, "O_ID_2": -1, "HRU_CenX": -74.199336790130616, "HRU_CenY": 46.519041810742245, "HRU_Area": 8947376.5672168378, "HRU_ID": 36, "LAND_USE_C": "LAKE", "SOIL_PROF": "LAKE", "VEG_C": "LAKE", "DowSubId": 23000278, "RivSlope": -1.2345, "RivLength": -1.2345, "BasSlope": 29.887428529385936, "BasAspect": 161.51637998893972, "BasArea": 47327400.0, "BkfWidth": 19.340910547899998, "BkfDepth": 0.48848408194800003, "Lake_Cat": 1.0, "HyLakeId": 107128, "LakeVol": 112.69, "LakeDepth": 13.0, "LakeArea": 8700000.0, "Laketype": 1.0, "Has_POI": 0, "MeanElev": 1428.2543843257397, "FloodP_n": -1.2345, "Q_Mean": 4.9082053278026052, "Ch_n": -1.2345, "DrainArea": 128289599.99999949, "Strahler": 2.0, "Seg_ID": 113.0, "Seg_order": 1.0, "Max_DEM": -1.2345, "Min_DEM": -1.2345, "Obs_NM": "<NA>", "SRC_obs": "<NA>", "centroid_x": -74.190831026122609, "centroid_y": 46.49758378224594, "DA_Chn_L": 30500.8030253, "DA_Slope": 8.4925180607000001, "DA_Chn_Slp": 0.0088194399267800001, "HRU_S_mean": 29.887428529385936, "HRU_A_mean": 161.51637998893972, "HRU_E_mean": 1428.2543843257397, "HRU_A_G": 9135900.0000015739 }, "geometry": { "type": "MultiPolygon", "coordinates": [ [ [ [ -74.197586339628387, 46.550338598562725 ], [ -74.204897764092166, 46.538791508640344 ], [ -74.185623772205133, 46.514814931656211 ], [ -74.196412615521979, 46.511983290037428 ], [ -74.166673280067656, 46.498523905878663 ], [ -74.187797789331313, 46.502913486991524 ], [ -74.171255112333242, 46.491700772349198 ], [ -74.173017158551616, 46.485626698032661 ], [ -74.205282013021645, 46.503906770898695 ], [ -74.224502266279444, 46.536325295199013 ], [ -74.205687981518054, 46.531360538493523 ], [ -74.216344836541765, 46.547110568212361 ], [ -74.197586339628387, 46.550338598562725 ] ], [ [ -74.204183050765224, 46.503649443328953 ], [ -74.203692505476525, 46.503816609324424 ], [ -74.204058825234014, 46.5039023886183 ], [ -74.204183050765224, 46.503649443328953 ] ] ], [ [ [ -74.173141511096048, 46.485373814320219 ], [ -74.172651051811371, 46.48554080199105 ], [ -74.172775406219927, 46.485287918865552 ], [ -74.173141511096048, 46.485373814320219 ] ] ] ] } },
{ "type": "Feature", "properties": { "SubId": 23007842, "HRU_IsLake": -1, "Landuse_ID": 1, "Veg_ID": 1, "Soil_ID": 1, "O_ID_1": 1, "O_ID_2": 1, "HRU_CenX": -74.188822332946799, "HRU_CenY": 46.492521373608191, "HRU_Area": 38380023.432783164, "HRU_ID": 37, "LAND_USE_C": "Landuse_Land_HRU", "SOIL_PROF": "Soil_Land_HRU", "VEG_C": "Veg_Land_HRU", "DowSubId": 23000278, "RivSlope": -1.2345, "RivLength": -1.2345, "BasSlope": 29.887428529385936, "BasAspect": 161.51637998893972, "BasArea": 47327400.0, "BkfWidth": 19.340910547899998, "BkfDepth": 0.48848408194800003, "Lake_Cat": 1.0, "HyLakeId": 107128, "LakeVol": 112.69, "LakeDepth": 13.0, "LakeArea": 8700000.0, "Laketype": 1.0, "Has_POI": 0, "MeanElev": 1428.2543843257397, "FloodP_n": -1.2345, "Q_Mean": 4.9082053278026052, "Ch_n": -1.2345, "DrainArea": 128289599.99999949, "Strahler": 2.0, "Seg_ID": 113.0, "Seg_order": 1.0, "Max_DEM": -1.2345, "Min_DEM": -1.2345, "Obs_NM": "<NA>", "SRC_obs": "<NA>", "centroid_x": -74.190831026122609, "centroid_y": 46.49758378224594, "DA_Chn_L": 30500.8030253, "DA_Slope": 8.4925180607000001, "DA_Chn_Slp": 0.0088194399267800001, "HRU_S_mean": 29.887428529385936, "HRU_A_mean": 161.51637998893972, "HRU_E_mean": 1428.2543843257397, "HRU_A_G": 39188699.999992579 }, "geometry": { "type": "MultiPolygon", "coordinates": [ [ [ [ -74.222482755764403, 46.510470465766794 ], [ -74.220996466958596, 46.530146816108193 ], [ -74.207273912297907, 46.51565462355282 ], [ -74.205282013021645, 46.503906770898695 ], [ -74.173383266723391, 46.485712592650181 ], [ -74.187797789331313, 46.502913486991524 ], [ -74.166673280067656, 46.498523905878663 ], [ -74.196412615521979, 46.511983290037428 ], [ -74.185623772205133, 46.514814931656211 ], [ -74.204897764092166, 46.538791508640344 ], [ -74.194652821580121, 46.549651982788262 ], [ -74.1998703325592, 46.539871578388762 ], [ -74.165891901995764, 46.533321736911397 ], [ -74.145074507597002, 46.506712517185292 ], [ -74.170230197287864, 46.453101860443326 ], [ -74.205062823844983, 46.435331454323631 ], [ -74.222390649738387, 46.489016774125503 ], [ -74.193894160298541, 46.489675853770322 ], [ -74.222482755764403, 46.510470465766794 ] ], [ [ -74.172651051811371, 46.48554080199105 ], [ -74.173141511096048, 46.485373814320219 ], [ -74.172775406219927, 46.485287918865552 ], [ -74.172651051811371, 46.48554080199105 ] ] ], [ [ [ -74.222396666890262, 46.539781696469326 ], [ -74.222639102437356, 46.540120423793027 ], [ -74.222272444072217, 46.540034705188326 ], [ -74.222396666890262, 46.539781696469326 ] ] ], [ [ [ -74.203692505476525, 46.503816609324424 ], [ -74.204183050765224, 46.503649443328953 ], [ -74.204058825234014, 46.5039023886183 ], [ -74.203692505476525, 46.503816609324424 ] ] ], [ [ [ -74.20518684992976, 46.435078581638784 ], [ -74.204697073241093, 46.435245704103039 ], [ -74.204821101187122, 46.434992832003907 ], [ -74.20518684992976, 46.435078581638784 ] ] ], [ [ [ -74.195268319697107, 46.549231850067471 ], [ -74.196243970925323, 46.549742317935994 ], [ -74.195143913723669, 46.549484832359326 ], [ -74.195268319697107, 46.549231850067471 ] ] ], [ [ [ -74.199891585720351, 46.553134870168044 ], [ -74.216344836541765, 46.547110568212361 ], [ -74.207681235618921, 46.543109754054576 ], [ -74.205687981518054, 46.531360538493523 ], [ -74.222402677302284, 46.538936953252986 ], [ -74.213317878635792, 46.542453755991737 ], [ -74.219533113248943, 46.546445690400247 ], [ -74.220566723569348, 46.555995528975835 ], [ -74.199891585720351, 46.553134870168044 ] ] ] ] } },
{ "type": "Feature", "properties": { "SubId": 23007946, "HRU_IsLake": 1, "Landuse_ID": -1, "Veg_ID": -1, "Soil_ID": -1, "O_ID_1": -1, "O_ID_2": -1, "HRU_CenX": -73.922220599642728, "HRU_CenY": 46.600739876924045, "HRU_Area": 2192395.4127609455, "HRU_ID": 38, "LAND_USE_C": "LAKE", "SOIL_PROF": "LAKE", "VEG_C": "LAKE", "DowSubId": 23000445, "RivSlope": -1.2345, "RivLength": -1.2345, "BasSlope": 30.986379500748047, "BasAspect": 169.69410678207123, "BasArea": 19378799.999999899, "BkfWidth": 7.7398678493700004, "BkfDepth": 0.281970966968, "Lake_Cat": 1.0, "HyLakeId": 107056, "LakeVol": 20.09, "LakeDepth": 9.6, "LakeArea": 2100000.0, "Laketype": 1.0, "Has_POI": 0, "MeanElev": 1440.5897838472094, "FloodP_n": -1.2345, "Q_Mean": 1.15558553869, "Ch_n": -1.2345, "DrainArea": 19378799.999999899, "Strahler": 1.0, "Seg_ID": 17.0, "Seg_order": 1.0, "Max_DEM": -1.2345, "Min_DEM": -1.2345, "Obs_NM": "<NA>", "SRC_obs": "<NA>", "centroid_x": -73.924168605831284, "centroid_y": 46.607428433733872, "DA_Chn_L": 5305.2186130099999, "DA_Slope": 30.986379500799998, "DA_Chn_Slp": 0.0086707077229899992, "HRU_S_mean": 30.986379500748047, "HRU_A_mean": 169.69410678207123, "HRU_E_mean": 1440.5897838472094, "HRU_A_G": 2237400.0000002352 }, "geometry": { "type": "Polygon", "coordinates": [ [ [ -73.939489992310399, 46.601925575658051 ], [ -73.908367783705742, 46.609240371493087 ], [ -73.906493237562259, 46.603143385844277 ], [ -73.92078651459687, 46.589297131138906 ], [ -73.940555439383687, 46.595679416777372 ], [ -73.939489992310399, 46.601925575658051 ] ], [ [ -73.93584696163046, 46.599366975246333 ], [ -73.937427858249194, 46.600306729364355 ], [ -73.937691435725526, 46.598956424320221 ], [ -73.93584696163046, 46.599366975246333 ] ] ] } },
{ "type": "Feature", "properties": { "SubId": 23007946, "HRU_IsLake": -1, "Landuse_ID": 1, "Veg_ID": 1, "Soil_ID": 1, "O_ID_1": 1, "O_ID_2": 1, "HRU_CenX": -73.924423679538691, "HRU_CenY": 46.608289593968472, "HRU_Area": 17186404.587238956, "HRU_ID": 39, "LAND_USE_C": "Landuse_Land_HRU", "SOIL_PROF": "Soil_Land_HRU", "VEG_C": "Veg_Land_HRU", "DowSubId": 23000445, "RivSlope": -1.2345, "RivLength": -1.2345, "BasSlope": 30.986379500748047, "BasAspect": 169.69410678207123, "BasArea": 19378799.999999899, "BkfWidth": 7.7398678493700004, "BkfDepth": 0.281970966968, "Lake_Cat": 1.0, "HyLakeId": 107056, "LakeVol": 20.09, "LakeDepth": 9.6, "LakeArea": 2100000.0, "Laketype": 1.0, "Has_POI": 0, "MeanElev": 1440.5897838472094, "FloodP_n": -1.2345, "Q_Mean": 1.15558553869, "Ch_n": -1.2345, "DrainArea": 19378799.999999899, "Strahler": 1.0, "Seg_ID": 17.0, "Seg_order": 1.0, "Max_DEM": -1.2345, "Min_DEM": -1.2345, "Obs_NM": "<NA>", "SRC_obs": "<NA>", "centroid_x": -73.924168605831284, "centroid_y": 46.607428433733872, "DA_Chn_L": 5305.2186130099999, "DA_Slope": 30.986379500799998, "DA_Chn_Slp": 0.0086707077229899992, "HRU_S_mean": 30.986379500748047, "HRU_A_mean": 169.69410678207123, "HRU_E_mean": 1440.5897838472094, "HRU_A_G": 17539199.99999804 }, "geometry": { "type": "MultiPolygon", "coordinates": [ [ [ [ -73.942149676426382, 46.640985581550829 ], [ -73.887536883945614, 46.608251611623437 ], [ -73.882239743693788, 46.593426498159104 ], [ -73.899932033723005, 46.599042408454629 ], [ -73.904320855312804, 46.583693833032548 ], [ -73.929253113941385, 46.57972060862587 ], [ -73.940188871571934, 46.595592556489628 ], [ -73.92078651459687, 46.589297131138906 ], [ -73.906493237562259, 46.603143385844277 ], [ -73.957581988237024, 46.605927583988887 ], [ -73.942149676426382, 46.640985581550829 ] ] ], [ [ [ -73.937427858249194, 46.600306729364355 ], [ -73.93584696163046, 46.599366975246333 ], [ -73.937691435725526, 46.598956424320221 ], [ -73.937427858249194, 46.600306729364355 ] ] ] ] } },
{ "type": "Feature", "properties": { "SubId": 23012041, "HRU_IsLake": -1, "Landuse_ID": 1, "Veg_ID": 1, "Soil_ID": 1, "O_ID_1": 1, "O_ID_2": 1, "HRU_CenX": -73.985802459243516, "HRU_CenY": 46.651964427484323, "HRU_Area": 27294300.0, "HRU_ID": 40, "LAND_USE_C": "Landuse_Land_HRU", "SOIL_PROF": "Soil_Land_HRU", "VEG_C": "Veg_Land_HRU", "DowSubId": -1, "RivSlope": 0.006913434677155, "RivLength": 7660.6601717840003, "BasSlope": 27.515145626956123, "BasAspect": 188.90703126877605, "BasArea": 27294300.0, "BkfWidth": 54.350899509100003, "BkfDepth": 0.908005142042, "Lake_Cat": 0.0, "HyLakeId": 0, "LakeVol": 0.0, "LakeDepth": 0.0, "LakeArea": 0.0, "Laketype": 0.0, "Has_POI": 1, "MeanElev": 1389.0250999327741, "FloodP_n": 0.096124724894320002, "Q_Mean": 56.477197146577744, "Ch_n": 0.063407140465411002, "DrainArea": 1082136600.0000002, "Strahler": 3.0, "Seg_ID": 118.0, "Seg_order": 1.0, "Max_DEM": 1087.0, "Min_DEM": 1040.0, "Obs_NM": "02NF004", "SRC_obs": "WSC", "centroid_x": -73.985830035280969, "centroid_y": 46.651963623540652, "DA_Chn_L": 98448.216433900001, "DA_Slope": 3.9072364426, "DA_Chn_Slp": 0.013154123527199999, "HRU_S_mean": 27.515145626956123, "HRU_A_mean": 188.90703126877605, "HRU_E_mean": 1389.0250999327741, "HRU_A_G": 27814499.999999549 }, "geometry": { "type": "MultiPolygon", "coordinates": [ [ [ [ -73.992069354504849, 46.692344902781997 ], [ -73.971988280031908, 46.658498446831196 ], [ -73.953612594734466, 46.664892930230295 ], [ -73.943537664356626, 46.647248697987358 ], [ -74.01755686305836, 46.614733500023519 ], [ -73.999289585017024, 46.674551199329706 ], [ -74.0081851864947, 46.69049385000752 ], [ -73.992069354504849, 46.692344902781997 ] ] ], [ [ [ -73.955322361351492, 46.665579859068515 ], [ -73.955815664487801, 46.665413903226856 ], [ -73.955689545153632, 46.66566668492667 ], [ -73.955322361351492, 46.665579859068515 ] ] ] ] } }
]
}
